<?xml version="1.0" encoding="UTF-8"?><osm version="0.6" generator="https://github.com/Rub21/geojson2osm"><node lat="45.405471" lon="-75.85752"  id="-1"  changeset="false" ><tag k="source" v="Ville de Gatineau"/><tag k="operator" v="Ville de Gatineau"/><tag k="seasonal" v="summer"/><tag k="name" v="Pataugeoire Front"/><tag k="addr:housenumber" v="175"/><tag k="addr:street" v="Rue Front"/><tag k="leisure" v="swimming_pool"/><tag k="swimming_pool" v="wading"/></node><node lat="45.433364" lon="-75.741108"  id="-2"  changeset="false" ><tag k="source" v="Ville de Gatineau"/><tag k="operator" v="Ville de Gatineau"/><tag k="seasonal" v="summer"/><tag k="name" v="Pataugeoire Saint-Jean"/><tag k="addr:housenumber" v="40"/><tag k="addr:street" v="Rue Labelle"/><tag k="leisure" v="swimming_pool"/><tag k="swimming_pool" v="wading"/></node><node lat="45.417345" lon="-75.839603"  id="-3"  changeset="false" ><tag k="source" v="Ville de Gatineau"/><tag k="operator" v="Ville de Gatineau"/><tag k="seasonal" v="summer"/><tag k="name" v="Jeux d'eau Jardins-Lavignes"/><tag k="addr:housenumber" v="250"/><tag k="addr:street" v="Avenue du Bois-Franc"/><tag k="leisure" v="playground"/><tag k="playground" v="splashpad"/></node><node lat="45.402342" lon="-75.86038"  id="-4"  changeset="false" ><tag k="source" v="Ville de Gatineau"/><tag k="operator" v="Ville de Gatineau"/><tag k="seasonal" v="summer"/><tag k="name" v="Jeux d'eau Claude-Rioux"/><tag k="addr:housenumber" v="42"/><tag k="addr:street" v="Rue Alexis-Rajotte"/><tag k="leisure" v="playground"/><tag k="playground" v="splashpad"/></node><node lat="45.41327" lon="-75.856102"  id="-5"  changeset="false" ><tag k="source" v="Ville de Gatineau"/><tag k="operator" v="Ville de Gatineau"/><tag k="seasonal" v="summer"/><tag k="name" v="Jeux d'eau Renard"/><tag k="addr:housenumber" v="35"/><tag k="addr:street" v="Rue du Renard"/><tag k="leisure" v="playground"/><tag k="playground" v="splashpad"/></node><node lat="45.536631" lon="-75.483314"  id="-6"  changeset="false" ><tag k="source" v="Ville de Gatineau"/><tag k="operator" v="Ville de Gatineau"/><tag k="seasonal" v="summer"/><tag k="name" v="Jeux d'eau Marc-Gosselin"/><tag k="addr:housenumber" v="1109"/><tag k="addr:street" v="Rue de Neuville"/><tag k="leisure" v="playground"/><tag k="playground" v="splashpad"/></node><node lat="45.579491" lon="-75.423766"  id="-7"  changeset="false" ><tag k="source" v="Ville de Gatineau"/><tag k="operator" v="Ville de Gatineau"/><tag k="seasonal" v="summer"/><tag k="name" v="Jeux d'eau Lions"/><tag k="addr:housenumber" v="674"/><tag k="addr:street" v="Rue Bergeron"/><tag k="leisure" v="playground"/><tag k="playground" v="splashpad"/></node><node lat="45.526699" lon="-75.628964"  id="-8"  changeset="false" ><tag k="source" v="Ville de Gatineau"/><tag k="operator" v="Ville de Gatineau"/><tag k="seasonal" v="summer"/><tag k="name" v="Jeux d'eau Roberval"/><tag k="addr:housenumber" v="140"/><tag k="addr:street" v="Rue de Roberval"/><tag k="leisure" v="playground"/><tag k="playground" v="splashpad"/></node><node lat="45.591371" lon="-75.411768"  id="-9"  changeset="false" ><tag k="source" v="Ville de Gatineau"/><tag k="operator" v="Ville de Gatineau"/><tag k="seasonal" v="summer"/><tag k="name" v="Jeux d'eau Joseph"/><tag k="addr:housenumber" v="181"/><tag k="addr:street" v="Rue Joseph"/><tag k="leisure" v="playground"/><tag k="playground" v="splashpad"/></node><node lat="45.472726" lon="-75.764964"  id="-10"  changeset="false" ><tag k="source" v="Ville de Gatineau"/><tag k="operator" v="Ville de Gatineau"/><tag k="seasonal" v="summer"/><tag k="name" v="Jeux d'eau Hautes-Plaines"/><tag k="addr:housenumber" v="479"/><tag k="addr:street" v="Boulevard des Hautes-Plaines"/><tag k="leisure" v="playground"/><tag k="playground" v="splashpad"/></node><node lat="45.453214" lon="-75.746004"  id="-11"  changeset="false" ><tag k="source" v="Ville de Gatineau"/><tag k="operator" v="Ville de Gatineau"/><tag k="seasonal" v="summer"/><tag k="name" v="Pataugeoire Moncion"/><tag k="addr:housenumber" v="43"/><tag k="addr:street" v="Rue St-Onge"/><tag k="leisure" v="swimming_pool"/><tag k="swimming_pool" v="wading"/></node><node lat="45.443158" lon="-75.715801"  id="-12"  changeset="false" ><tag k="source" v="Ville de Gatineau"/><tag k="operator" v="Ville de Gatineau"/><tag k="seasonal" v="summer"/><tag k="name" v="Piscine Desjardins"/><tag k="addr:housenumber" v="1"/><tag k="addr:street" v="Rue Goyette"/><tag k="leisure" v="swimming_pool"/><tag k="covered" v="no"/></node><node lat="45.456802" lon="-75.755572"  id="-13"  changeset="false" ><tag k="source" v="Ville de Gatineau"/><tag k="operator" v="Ville de Gatineau"/><tag k="seasonal" v="summer"/><tag k="name" v="Piscine Bisson"/><tag k="addr:housenumber" v="36"/><tag k="addr:street" v="(A) Rue Thérien"/><tag k="leisure" v="swimming_pool"/><tag k="covered" v="no"/></node><node lat="45.445865" lon="-75.739947"  id="-14"  changeset="false" ><tag k="source" v="Ville de Gatineau"/><tag k="operator" v="Ville de Gatineau"/><tag k="seasonal" v="summer"/><tag k="name" v="Jeux d'eau Laurent-Groulx"/><tag k="addr:housenumber" v="1"/><tag k="addr:street" v="Rue Lévesque"/><tag k="leisure" v="playground"/><tag k="playground" v="splashpad"/></node><node lat="45.446016" lon="-75.739076"  id="-15"  changeset="false" ><tag k="source" v="Ville de Gatineau"/><tag k="operator" v="Ville de Gatineau"/><tag k="seasonal" v="summer"/><tag k="name" v="Piscine Laurent-Groulx"/><tag k="addr:housenumber" v="1"/><tag k="addr:street" v="Rue Lévesque"/><tag k="leisure" v="swimming_pool"/><tag k="covered" v="no"/></node><node lat="45.444526" lon="-75.717286"  id="-16"  changeset="false" ><tag k="source" v="Ville de Gatineau"/><tag k="operator" v="Ville de Gatineau"/><tag k="seasonal" v="summer"/><tag k="name" v="Jeux d'eau Desjardins"/><tag k="addr:housenumber" v="1"/><tag k="addr:street" v="Rue Goyette"/><tag k="leisure" v="playground"/><tag k="playground" v="splashpad"/></node><node lat="45.46613" lon="-75.746528"  id="-17"  changeset="false" ><tag k="source" v="Ville de Gatineau"/><tag k="operator" v="Ville de Gatineau"/><tag k="seasonal" v="summer"/><tag k="name" v="Jeux d'eau Daniel-Johnson"/><tag k="addr:housenumber" v="54"/><tag k="addr:street" v="Rue Tassé"/><tag k="leisure" v="playground"/><tag k="playground" v="splashpad"/></node><node lat="45.470567" lon="-75.688964"  id="-18"  changeset="false" ><tag k="source" v="Ville de Gatineau"/><tag k="operator" v="Ville de Gatineau"/><tag k="seasonal" v="summer"/><tag k="name" v="Pataugeoire Saint-Rosaire"/><tag k="addr:housenumber" v="52"/><tag k="addr:street" v="Rue Saint-Rosaire"/><tag k="leisure" v="swimming_pool"/><tag k="swimming_pool" v="wading"/></node><node lat="45.439368" lon="-75.7828"  id="-19"  changeset="false" ><tag k="source" v="Ville de Gatineau"/><tag k="operator" v="Ville de Gatineau"/><tag k="seasonal" v="summer"/><tag k="name" v="Jeux d'eau Plateau"/><tag k="addr:housenumber" v="155"/><tag k="addr:street" v="Rue de l'Atmosphère"/><tag k="leisure" v="playground"/><tag k="playground" v="splashpad"/></node><node lat="45.476913" lon="-75.684954"  id="-20"  changeset="false" ><tag k="source" v="Ville de Gatineau"/><tag k="operator" v="Ville de Gatineau"/><tag k="seasonal" v="summer"/><tag k="name" v="Jeux d'eau Laflèche"/><tag k="addr:housenumber" v="181"/><tag k="addr:street" v="Rue de Lausanne"/><tag k="leisure" v="playground"/><tag k="playground" v="splashpad"/></node><node lat="45.474476" lon="-75.724203"  id="-21"  changeset="false" ><tag k="source" v="Ville de Gatineau"/><tag k="operator" v="Ville de Gatineau"/><tag k="seasonal" v="summer"/><tag k="name" v="Jeux d'eau Riviera"/><tag k="addr:housenumber" v="22"/><tag k="addr:street" v="Rue d'Auvergne"/><tag k="leisure" v="playground"/><tag k="playground" v="splashpad"/></node><node lat="45.481014" lon="-75.647335"  id="-22"  changeset="false" ><tag k="source" v="Ville de Gatineau"/><tag k="operator" v="Ville de Gatineau"/><tag k="seasonal" v="summer"/><tag k="name" v="Jeux d'eau Lavictoire"/><tag k="addr:housenumber" v="95"/><tag k="addr:street" v="Rue East"/><tag k="leisure" v="playground"/><tag k="playground" v="splashpad"/></node><node lat="45.432827" lon="-75.723942"  id="-23"  changeset="false" ><tag k="source" v="Ville de Gatineau"/><tag k="operator" v="Ville de Gatineau"/><tag k="seasonal" v="summer"/><tag k="name" v="Pataugeoire Saint-Rédempteur"/><tag k="addr:housenumber" v="101"/><tag k="addr:street" v="Rue de Carillon"/><tag k="leisure" v="swimming_pool"/><tag k="swimming_pool" v="wading"/></node><node lat="45.398377" lon="-75.800038"  id="-24"  changeset="false" ><tag k="source" v="Ville de Gatineau"/><tag k="operator" v="Ville de Gatineau"/><tag k="seasonal" v="summer"/><tag k="name" v="Jeux d'eau Robert-Stewart"/><tag k="addr:housenumber" v="56"/><tag k="addr:street" v="Rue Lynn"/><tag k="leisure" v="playground"/><tag k="playground" v="splashpad"/></node><node lat="45.426608" lon="-75.727273"  id="-25"  changeset="false" ><tag k="source" v="Ville de Gatineau"/><tag k="operator" v="Ville de Gatineau"/><tag k="seasonal" v="summer"/><tag k="name" v="Jeux d'eau Jean-Dallaire"/><tag k="addr:housenumber" v="33"/><tag k="addr:street" v="Rue Hanson"/><tag k="leisure" v="playground"/><tag k="playground" v="splashpad"/></node><node lat="45.480089" lon="-75.79103"  id="-26"  changeset="false" ><tag k="source" v="Ville de Gatineau"/><tag k="operator" v="Ville de Gatineau"/><tag k="seasonal" v="summer"/><tag k="name" v="Jeux d'eau Gabbro"/><tag k="addr:housenumber" v="79"/><tag k="addr:street" v="Rue du Gabbro"/><tag k="leisure" v="playground"/><tag k="playground" v="splashpad"/></node><node lat="45.505" lon="-75.634909"  id="-27"  changeset="false" ><tag k="source" v="Ville de Gatineau"/><tag k="operator" v="Ville de Gatineau"/><tag k="seasonal" v="summer"/><tag k="name" v="Jeux d'eau Joseph-H-Maloney"/><tag k="leisure" v="playground"/><tag k="playground" v="splashpad"/></node><node lat="45.526364" lon="-75.488669"  id="-28"  changeset="false" ><tag k="source" v="Ville de Gatineau"/><tag k="operator" v="Ville de Gatineau"/><tag k="seasonal" v="summer"/><tag k="name" v="Jeux d'eau Gilles-Maisonneuve"/><tag k="addr:housenumber" v="1100"/><tag k="addr:street" v="Rue Yvon-Pichette"/><tag k="leisure" v="playground"/><tag k="playground" v="splashpad"/></node><node lat="45.58789" lon="-75.40098"  id="-29"  changeset="false" ><tag k="source" v="Ville de Gatineau"/><tag k="operator" v="Ville de Gatineau"/><tag k="seasonal" v="no"/><tag k="name" v="Centre aquatique Lucien-Houle"/><tag k="addr:housenumber" v="580"/><tag k="addr:street" v="(A) Rue Maclaren Est"/><tag k="leisure" v="sports_centre"/><tag k="swimming_pool" v="yes"/><tag k="sport" v="swimming"/></node><node lat="45.559248" lon="-75.438469"  id="-30"  changeset="false" ><tag k="source" v="Ville de Gatineau"/><tag k="operator" v="Ville de Gatineau"/><tag k="seasonal" v="summer"/><tag k="name" v="Jeux d'eau l'Érablière"/><tag k="addr:housenumber" v="185"/><tag k="addr:street" v="Rue des Samares"/><tag k="leisure" v="playground"/><tag k="playground" v="splashpad"/></node><node lat="45.505645" lon="-75.606776"  id="-31"  changeset="false" ><tag k="source" v="Ville de Gatineau"/><tag k="operator" v="Ville de Gatineau"/><tag k="seasonal" v="summer"/><tag k="name" v="Jeux d'eau Raymond-Madore"/><tag k="addr:housenumber" v="160"/><tag k="addr:street" v="Rue des Fleurs"/><tag k="leisure" v="playground"/><tag k="playground" v="splashpad"/></node><node lat="45.504623" lon="-75.652156"  id="-32"  changeset="false" ><tag k="source" v="Ville de Gatineau"/><tag k="operator" v="Ville de Gatineau"/><tag k="seasonal" v="summer"/><tag k="name" v="Pataugeoire La Vérendrye"/><tag k="addr:housenumber" v="730"/><tag k="addr:street" v="Rue Main"/><tag k="leisure" v="swimming_pool"/><tag k="swimming_pool" v="wading"/></node><node lat="45.425974" lon="-75.769402"  id="-33"  changeset="false" ><tag k="source" v="Ville de Gatineau"/><tag k="operator" v="Ville de Gatineau"/><tag k="seasonal" v="summer"/><tag k="name" v="Piscine des Trembles"/><tag k="addr:housenumber" v="180"/><tag k="addr:street" v="Boulevard des Trembles"/><tag k="leisure" v="swimming_pool"/><tag k="covered" v="no"/></node><node lat="45.384188" lon="-75.831254"  id="-34"  changeset="false" ><tag k="source" v="Ville de Gatineau"/><tag k="operator" v="Ville de Gatineau"/><tag k="seasonal" v="summer"/><tag k="name" v="Jeux d'eau Louis-Roy"/><tag k="addr:housenumber" v="5"/><tag k="addr:street" v="Rue Louis-Roy"/><tag k="leisure" v="playground"/><tag k="playground" v="splashpad"/></node><node lat="45.409681" lon="-75.795411"  id="-35"  changeset="false" ><tag k="source" v="Ville de Gatineau"/><tag k="operator" v="Ville de Gatineau"/><tag k="seasonal" v="summer"/><tag k="name" v="Jeux d'eau Émile-Zola"/><tag k="addr:housenumber" v="15"/><tag k="addr:street" v="Rue Émile-Zola"/><tag k="leisure" v="playground"/><tag k="playground" v="splashpad"/></node><node lat="45.431865" lon="-75.715827"  id="-36"  changeset="false" ><tag k="source" v="Ville de Gatineau"/><tag k="operator" v="Ville de Gatineau"/><tag k="seasonal" v="summer"/><tag k="name" v="Pataugeoire Fontaine"/><tag k="addr:housenumber" v="120"/><tag k="addr:street" v="Rue Charlevoix"/><tag k="leisure" v="swimming_pool"/><tag k="swimming_pool" v="wading"/></node><node lat="45.431659" lon="-75.716016"  id="-37"  changeset="false" ><tag k="source" v="Ville de Gatineau"/><tag k="operator" v="Ville de Gatineau"/><tag k="seasonal" v="summer"/><tag k="name" v="Piscine Fontaine"/><tag k="addr:housenumber" v="120"/><tag k="addr:street" v="Rue Charlevoix"/><tag k="leisure" v="swimming_pool"/><tag k="covered" v="no"/></node><node lat="45.397047" lon="-75.825233"  id="-38"  changeset="false" ><tag k="source" v="Ville de Gatineau"/><tag k="operator" v="Ville de Gatineau"/><tag k="seasonal" v="no"/><tag k="name" v="Centre aquatique Paul-Pelletier"/><tag k="addr:housenumber" v="325"/><tag k="addr:street" v="Chemin d'Aylmer"/><tag k="leisure" v="sports_centre"/><tag k="swimming_pool" v="yes"/><tag k="sport" v="swimming"/></node><node lat="45.383729" lon="-75.807704"  id="-39"  changeset="false" ><tag k="source" v="Ville de Gatineau"/><tag k="operator" v="Ville de Gatineau"/><tag k="seasonal" v="summer"/><tag k="name" v="Jeux d'eau Kenneth-Llyod"/><tag k="addr:housenumber" v="26"/><tag k="addr:street" v="Rue Arthur-Whelan"/><tag k="leisure" v="playground"/><tag k="playground" v="splashpad"/></node><node lat="45.426401" lon="-75.767698"  id="-40"  changeset="false" ><tag k="source" v="Ville de Gatineau"/><tag k="operator" v="Ville de Gatineau"/><tag k="seasonal" v="summer"/><tag k="name" v="Jeux d'eau Trembles"/><tag k="addr:housenumber" v="150"/><tag k="addr:street" v="Boulevard des Trembles"/><tag k="leisure" v="playground"/><tag k="playground" v="splashpad"/></node><node lat="45.428423" lon="-75.732946"  id="-41"  changeset="false" ><tag k="source" v="Ville de Gatineau"/><tag k="operator" v="Ville de Gatineau"/><tag k="seasonal" v="summer"/><tag k="name" v="Jeux d'eau Saint-Jean-Bosco"/><tag k="addr:housenumber" v="70"/><tag k="addr:street" v="Boulevard Saint-Joseph"/><tag k="leisure" v="playground"/><tag k="playground" v="splashpad"/></node><node lat="45.480003" lon="-75.631713"  id="-42"  changeset="false" ><tag k="source" v="Ville de Gatineau"/><tag k="operator" v="Ville de Gatineau"/><tag k="seasonal" v="summer"/><tag k="name" v="Jeux d'eau Racicot"/><tag k="addr:housenumber" v="77"/><tag k="addr:street" v="Rue Sabourin"/><tag k="leisure" v="playground"/><tag k="playground" v="splashpad"/></node><node lat="45.455995" lon="-75.756073"  id="-43"  changeset="false" ><tag k="source" v="Ville de Gatineau"/><tag k="operator" v="Ville de Gatineau"/><tag k="seasonal" v="summer"/><tag k="name" v="Jeux d'eau Bisson"/><tag k="addr:housenumber" v="36"/><tag k="addr:street" v="(A) Rue Thérien"/><tag k="leisure" v="playground"/><tag k="playground" v="splashpad"/></node><node lat="45.433958" lon="-75.80098"  id="-44"  changeset="false" ><tag k="source" v="Ville de Gatineau"/><tag k="operator" v="Ville de Gatineau"/><tag k="seasonal" v="summer"/><tag k="name" v="Jeux d'eau Central"/><tag k="addr:housenumber" v="205"/><tag k="addr:street" v="Rue de Bruxelles"/><tag k="leisure" v="playground"/><tag k="playground" v="splashpad"/></node><node lat="45.469618" lon="-75.706442"  id="-45"  changeset="false" ><tag k="source" v="Ville de Gatineau"/><tag k="operator" v="Ville de Gatineau"/><tag k="seasonal" v="summer"/><tag k="name" v="Pataugeoire Le Coteau"/><tag k="addr:housenumber" v="60"/><tag k="addr:street" v="Rue Louis-Riel"/><tag k="leisure" v="swimming_pool"/><tag k="swimming_pool" v="wading"/></node><node lat="45.436458" lon="-75.736626"  id="-46"  changeset="false" ><tag k="source" v="Ville de Gatineau"/><tag k="operator" v="Ville de Gatineau"/><tag k="seasonal" v="summer"/><tag k="name" v="Piscine Larocque"/><tag k="addr:housenumber" v="2"/><tag k="addr:street" v="Rue Fortier"/><tag k="leisure" v="swimming_pool"/><tag k="covered" v="no"/></node><node lat="45.436594" lon="-75.736915"  id="-47"  changeset="false" ><tag k="source" v="Ville de Gatineau"/><tag k="operator" v="Ville de Gatineau"/><tag k="seasonal" v="summer"/><tag k="name" v="Jeux d'eau Larocque"/><tag k="addr:housenumber" v="2"/><tag k="addr:street" v="Rue Fortier"/><tag k="leisure" v="playground"/><tag k="playground" v="splashpad"/></node><node lat="45.447406" lon="-75.787213"  id="-48"  changeset="false" ><tag k="source" v="Ville de Gatineau"/><tag k="operator" v="Ville de Gatineau"/><tag k="seasonal" v="summer"/><tag k="name" v="Jeux d'eau Shamal"/><tag k="addr:housenumber" v="30"/><tag k="addr:street" v="Rue du Shamal"/><tag k="leisure" v="playground"/><tag k="playground" v="splashpad"/></node><node lat="45.435083" lon="-75.718571"  id="-49"  changeset="false" ><tag k="source" v="Ville de Gatineau"/><tag k="operator" v="Ville de Gatineau"/><tag k="seasonal" v="summer"/><tag k="name" v="Jeux d'eau Dupuis"/><tag k="addr:housenumber" v="50"/><tag k="addr:street" v="Rue Isidore-Ostiguy"/><tag k="leisure" v="playground"/><tag k="playground" v="splashpad"/></node><node lat="45.436516" lon="-75.736892"  id="-50"  changeset="false" ><tag k="source" v="Ville de Gatineau"/><tag k="operator" v="Ville de Gatineau"/><tag k="seasonal" v="summer"/><tag k="name" v="Jeux d'eau Larocque"/><tag k="addr:housenumber" v="2"/><tag k="addr:street" v="Rue Fortier"/><tag k="leisure" v="playground"/><tag k="playground" v="splashpad"/></node><node lat="45.45535" lon="-75.739193"  id="-51"  changeset="false" ><tag k="source" v="Ville de Gatineau"/><tag k="operator" v="Ville de Gatineau"/><tag k="seasonal" v="summer"/><tag k="name" v="Piscine Eugène-Sauvageau"/><tag k="addr:housenumber" v="179"/><tag k="addr:street" v="Rue Mutchmore"/><tag k="leisure" v="swimming_pool"/><tag k="covered" v="no"/></node><node lat="45.486254" lon="-75.670059"  id="-52"  changeset="false" ><tag k="source" v="Ville de Gatineau"/><tag k="operator" v="Ville de Gatineau"/><tag k="seasonal" v="summer"/><tag k="name" v="Jeux d'eau Édouard-Mercier"/><tag k="addr:housenumber" v="555"/><tag k="addr:street" v="Rue Gouin"/><tag k="leisure" v="playground"/><tag k="playground" v="splashpad"/></node><node lat="45.542732" lon="-75.414364"  id="-53"  changeset="false" ><tag k="source" v="Ville de Gatineau"/><tag k="operator" v="Ville de Gatineau"/><tag k="seasonal" v="summer"/><tag k="name" v="Piscine Jack-Eyamie"/><tag k="addr:housenumber" v="40"/><tag k="addr:street" v="Rue du Bassin"/><tag k="leisure" v="swimming_pool"/><tag k="covered" v="no"/></node><node lat="45.422406" lon="-75.802876"  id="-54"  changeset="false" ><tag k="source" v="Ville de Gatineau"/><tag k="operator" v="Ville de Gatineau"/><tag k="seasonal" v="summer"/><tag k="name" v="Jeux d'eau d'Arcy-McGee-Symmes"/><tag k="addr:housenumber" v="100"/><tag k="addr:street" v="Rue de la Boussole"/><tag k="leisure" v="playground"/><tag k="playground" v="splashpad"/></node><node lat="45.494881" lon="-75.580899"  id="-55"  changeset="false" ><tag k="source" v="Ville de Gatineau"/><tag k="operator" v="Ville de Gatineau"/><tag k="seasonal" v="summer"/><tag k="name" v="Jeux d'eau Saint-Gérard"/><tag k="addr:housenumber" v="1259"/><tag k="addr:street" v="Boulevard Maloney Est"/><tag k="leisure" v="playground"/><tag k="playground" v="splashpad"/></node><node lat="45.497628" lon="-75.738068"  id="-56"  changeset="false" ><tag k="source" v="Ville de Gatineau"/><tag k="operator" v="Ville de Gatineau"/><tag k="seasonal" v="summer"/><tag k="name" v="Jeux d'eau René-Lévesque"/><tag k="addr:housenumber" v="288"/><tag k="addr:street" v="Chemin Lebaudy"/><tag k="leisure" v="playground"/><tag k="playground" v="splashpad"/></node><node lat="45.504182" lon="-75.671222"  id="-57"  changeset="false" ><tag k="source" v="Ville de Gatineau"/><tag k="operator" v="Ville de Gatineau"/><tag k="seasonal" v="summer"/><tag k="name" v="Jeux d'eau Vignobles"/><tag k="addr:housenumber" v="449"/><tag k="addr:street" v="Rue Nobert"/><tag k="leisure" v="playground"/><tag k="playground" v="splashpad"/></node><node lat="45.491243" lon="-75.646957"  id="-58"  changeset="false" ><tag k="source" v="Ville de Gatineau"/><tag k="operator" v="Ville de Gatineau"/><tag k="seasonal" v="summer"/><tag k="name" v="Jeux d'eau Saint-René"/><tag k="addr:housenumber" v="238"/><tag k="addr:street" v="Boulevard Saint-René Est"/><tag k="leisure" v="playground"/><tag k="playground" v="splashpad"/></node><node lat="45.484323" lon="-75.710091"  id="-59"  changeset="false" ><tag k="source" v="Ville de Gatineau"/><tag k="operator" v="Ville de Gatineau"/><tag k="seasonal" v="summer"/><tag k="name" v="Jeux d'eau Marcel-Gladu"/><tag k="addr:housenumber" v="81"/><tag k="addr:street" v="Rue de Bourassa"/><tag k="leisure" v="playground"/><tag k="playground" v="splashpad"/></node></osm>