<?xml version="1.0" encoding="UTF-8"?><osm version="0.6" generator="https://github.com/Rub21/geojson2osm"><node lat="45.595708" lon="-75.419834"  id="-1"  changeset="false" ><tag k="leisure" v="park"/><tag k="source" v="Ville de Gatineau"/><tag k="name" v="Parc du Landing"/><tag k="addr:street" v="Avenue de Buckingham"/><tag k="addr:housenumber" v="261"/></node><node lat="45.593501" lon="-75.401132"  id="-2"  changeset="false" ><tag k="leisure" v="park"/><tag k="source" v="Ville de Gatineau"/><tag k="name" v="Parc Nadon"/></node><node lat="45.586265" lon="-75.420107"  id="-3"  changeset="false" ><tag k="leisure" v="park"/><tag k="source" v="Ville de Gatineau"/><tag k="name" v="Parc des Anciens-Combattants"/><tag k="addr:street" v="Rue Maclaren Ouest"/><tag k="addr:housenumber" v="95"/></node><node lat="45.585609" lon="-75.41726"  id="-4"  changeset="false" ><tag k="leisure" v="park"/><tag k="source" v="Ville de Gatineau"/><tag k="name" v="Parc Maclaren"/><tag k="addr:street" v="Avenue de Buckingham"/><tag k="addr:housenumber" v="575"/></node><node lat="45.591405" lon="-75.411524"  id="-5"  changeset="false" ><tag k="leisure" v="park"/><tag k="source" v="Ville de Gatineau"/><tag k="name" v="Parc Joseph"/><tag k="addr:street" v="Rue Joseph"/><tag k="addr:housenumber" v="181"/></node><node lat="45.577656" lon="-75.423488"  id="-6"  changeset="false" ><tag k="leisure" v="park"/><tag k="source" v="Ville de Gatineau"/><tag k="name" v="Parc Acres"/><tag k="addr:street" v="Rue Allaire"/><tag k="addr:housenumber" v="695"/></node><node lat="45.586562" lon="-75.416995"  id="-7"  changeset="false" ><tag k="leisure" v="park"/><tag k="source" v="Ville de Gatineau"/><tag k="name" v="Place du Centenaire"/><tag k="addr:street" v="Avenue de Buckingham"/><tag k="addr:housenumber" v="519"/></node><node lat="45.480223" lon="-75.694973"  id="-8"  changeset="false" ><tag k="leisure" v="park"/><tag k="source" v="Ville de Gatineau"/><tag k="name" v="Parc Émile-Nelligan"/><tag k="addr:street" v="Rue Nelligan"/><tag k="addr:housenumber" v="100"/></node><node lat="45.48563" lon="-75.645046"  id="-9"  changeset="false" ><tag k="leisure" v="park"/><tag k="source" v="Ville de Gatineau"/><tag k="name" v="Parc Green Valley"/><tag k="addr:street" v="Rue Green Valley"/><tag k="addr:housenumber" v="280"/></node><node lat="45.426055" lon="-75.718739"  id="-10"  changeset="false" ><tag k="leisure" v="park"/><tag k="source" v="Ville de Gatineau"/><tag k="name" v="Parc Wellington"/><tag k="addr:street" v="Rue Wellington"/><tag k="addr:housenumber" v="120"/></node><node lat="45.480412" lon="-75.647286"  id="-11"  changeset="false" ><tag k="leisure" v="park"/><tag k="source" v="Ville de Gatineau"/><tag k="name" v="Parc Lavictoire"/><tag k="addr:street" v="Rue East"/><tag k="addr:housenumber" v="95"/></node><node lat="45.499874" lon="-75.67174"  id="-12"  changeset="false" ><tag k="leisure" v="park"/><tag k="source" v="Ville de Gatineau"/><tag k="name" v="Corridor des Vendanges"/></node><node lat="45.425315" lon="-75.7239"  id="-13"  changeset="false" ><tag k="leisure" v="park"/><tag k="source" v="Ville de Gatineau"/><tag k="name" v="Place de la Francophonie"/><tag k="addr:street" v="Rue Montcalm"/><tag k="addr:housenumber" v="11"/></node><node lat="45.426562" lon="-75.727371"  id="-14"  changeset="false" ><tag k="leisure" v="park"/><tag k="source" v="Ville de Gatineau"/><tag k="name" v="Parc Jean-Dallaire"/><tag k="addr:street" v="Rue Hanson"/><tag k="addr:housenumber" v="31"/></node><node lat="45.496813" lon="-75.755502"  id="-15"  changeset="false" ><tag k="leisure" v="park"/><tag k="source" v="Ville de Gatineau"/><tag k="name" v="Parc des Spiritains"/><tag k="addr:street" v="Rue des Spiritains"/><tag k="addr:housenumber" v="10"/></node><node lat="45.487002" lon="-75.721422"  id="-16"  changeset="false" ><tag k="leisure" v="park"/><tag k="source" v="Ville de Gatineau"/><tag k="name" v="Parc de Sainte-Maxime"/><tag k="addr:street" v="Rue de Sainte-Maxime"/><tag k="addr:housenumber" v="280"/></node><node lat="45.453302" lon="-75.725211"  id="-17"  changeset="false" ><tag k="leisure" v="park"/><tag k="source" v="Ville de Gatineau"/><tag k="name" v="Parc du Lac-Leamy"/><tag k="addr:street" v="Rue Atawe"/><tag k="addr:housenumber" v="100"/></node><node lat="45.575918" lon="-75.430773"  id="-18"  changeset="false" ><tag k="leisure" v="park"/><tag k="source" v="Ville de Gatineau"/><tag k="name" v="Parc Lanthier"/><tag k="addr:street" v="Rue Arcand"/><tag k="addr:housenumber" v="37"/></node><node lat="45.593354" lon="-75.418828"  id="-19"  changeset="false" ><tag k="leisure" v="park"/><tag k="source" v="Ville de Gatineau"/><tag k="name" v="Parc R.-W.-Scullion"/><tag k="addr:street" v="Avenue de Buckingham"/><tag k="addr:housenumber" v="265"/></node><node lat="45.405477" lon="-75.786617"  id="-20"  changeset="false" ><tag k="leisure" v="park"/><tag k="source" v="Ville de Gatineau"/><tag k="name" v="Parc Atholl-Doune"/><tag k="addr:street" v="Chemin d'Aylmer"/><tag k="addr:housenumber" v="1010"/></node><node lat="45.589576" lon="-75.420529"  id="-21"  changeset="false" ><tag k="leisure" v="park"/><tag k="source" v="Ville de Gatineau"/><tag k="name" v="Parc du Château-d'Eau"/><tag k="addr:street" v="Rue Fall"/><tag k="addr:housenumber" v="60"/></node><node lat="45.57026" lon="-75.425922"  id="-22"  changeset="false" ><tag k="leisure" v="park"/><tag k="source" v="Ville de Gatineau"/><tag k="name" v="Parc Gratton"/><tag k="addr:street" v="Rue Arthur-Gratton"/><tag k="addr:housenumber" v="904"/></node><node lat="45.532058" lon="-75.486754"  id="-23"  changeset="false" ><tag k="leisure" v="park"/><tag k="source" v="Ville de Gatineau"/><tag k="name" v="Corridor Neuville"/></node><node lat="45.532159" lon="-75.490412"  id="-24"  changeset="false" ><tag k="leisure" v="park"/><tag k="source" v="Ville de Gatineau"/><tag k="name" v="Parc de Neuville"/><tag k="addr:street" v="Rue de Neuville"/><tag k="addr:housenumber" v="1178"/></node><node lat="45.509873" lon="-75.573417"  id="-25"  changeset="false" ><tag k="leisure" v="park"/><tag k="source" v="Ville de Gatineau"/><tag k="name" v="Parc Lucien-Gendron"/><tag k="addr:street" v="Boulevard Saint-René Est"/><tag k="addr:housenumber" v="1717"/></node><node lat="45.508123" lon="-75.759004"  id="-26"  changeset="false" ><tag k="leisure" v="park"/><tag k="source" v="Ville de Gatineau"/><tag k="name" v="Corridor des Grands-Jardins"/></node><node lat="45.510205" lon="-75.762857"  id="-27"  changeset="false" ><tag k="leisure" v="park"/><tag k="source" v="Ville de Gatineau"/><tag k="name" v="Parc de la Pointe-Pelée"/><tag k="addr:street" v="Rue de la Pointe-Pelée"/><tag k="addr:housenumber" v="208"/></node><node lat="45.499165" lon="-75.576931"  id="-28"  changeset="false" ><tag k="leisure" v="park"/><tag k="source" v="Ville de Gatineau"/><tag k="name" v="Parc de Batiscan"/><tag k="addr:street" v="Rue de Batiscan"/><tag k="addr:housenumber" v="179"/></node><node lat="45.515181" lon="-75.737653"  id="-29"  changeset="false" ><tag k="leisure" v="park"/><tag k="source" v="Ville de Gatineau"/><tag k="name" v="Parc des Chevaliers"/><tag k="addr:street" v="Rue de Fleurimont"/><tag k="addr:housenumber" v="94"/></node><node lat="45.520577" lon="-75.695575"  id="-30"  changeset="false" ><tag k="leisure" v="park"/><tag k="source" v="Ville de Gatineau"/><tag k="name" v="Parc de Lotbinière"/><tag k="addr:street" v="Rue de Terrebonne"/><tag k="addr:housenumber" v="24"/></node><node lat="45.49935" lon="-75.658139"  id="-31"  changeset="false" ><tag k="leisure" v="park"/><tag k="source" v="Ville de Gatineau"/><tag k="name" v="Parc Hilltop"/><tag k="addr:street" v="Rue du Versant-Nord"/><tag k="addr:housenumber" v="140"/></node><node lat="45.502854" lon="-75.655543"  id="-32"  changeset="false" ><tag k="leisure" v="park"/><tag k="source" v="Ville de Gatineau"/><tag k="name" v="Parc D'Aoust"/><tag k="addr:street" v="Rue D'Aoust"/><tag k="addr:housenumber" v="15"/></node><node lat="45.506382" lon="-75.657388"  id="-33"  changeset="false" ><tag k="leisure" v="park"/><tag k="source" v="Ville de Gatineau"/><tag k="name" v="Parc des Bouleaux"/><tag k="addr:street" v="Rue de l'Orée-des-Bois"/><tag k="addr:housenumber" v="155"/></node><node lat="45.484238" lon="-75.648794"  id="-34"  changeset="false" ><tag k="leisure" v="park"/><tag k="source" v="Ville de Gatineau"/><tag k="name" v="Place Normand-Racicot"/><tag k="addr:street" v="Boulevard Maloney Est"/><tag k="addr:housenumber" v="193"/></node><node lat="45.497732" lon="-75.747767"  id="-35"  changeset="false" ><tag k="leisure" v="park"/><tag k="source" v="Ville de Gatineau"/><tag k="name" v="Parc Le Roy"/><tag k="addr:street" v="Rue Le Roy"/><tag k="addr:housenumber" v="81"/></node><node lat="45.484754" lon="-75.680524"  id="-36"  changeset="false" ><tag k="leisure" v="park"/><tag k="source" v="Ville de Gatineau"/><tag k="name" v="Place de la Cité"/><tag k="addr:street" v="Boulevard de la Cité"/><tag k="addr:housenumber" v="570"/></node><node lat="45.506972" lon="-75.750825"  id="-37"  changeset="false" ><tag k="leisure" v="park"/><tag k="source" v="Ville de Gatineau"/><tag k="name" v="Parc des Grands-Jardins"/><tag k="addr:street" v="Avenue des Grands-Jardins"/><tag k="addr:housenumber" v="192"/></node><node lat="45.504625" lon="-75.661758"  id="-38"  changeset="false" ><tag k="leisure" v="park"/><tag k="source" v="Ville de Gatineau"/><tag k="name" v="Corridor des Grands-Ravins"/></node><node lat="45.483555" lon="-75.645652"  id="-39"  changeset="false" ><tag k="leisure" v="park"/><tag k="source" v="Ville de Gatineau"/><tag k="name" v="Parc John-R.-Luck"/><tag k="addr:street" v="Rue Fernand-Arvisais"/><tag k="addr:housenumber" v="172"/></node><node lat="45.495123" lon="-75.646941"  id="-40"  changeset="false" ><tag k="leisure" v="park"/><tag k="source" v="Ville de Gatineau"/><tag k="name" v="Parc de la Colline"/><tag k="addr:street" v="Rue Magnus Est"/><tag k="addr:housenumber" v="231"/></node><node lat="45.428342" lon="-75.71186"  id="-41"  changeset="false" ><tag k="leisure" v="park"/><tag k="source" v="Ville de Gatineau"/><tag k="name" v="Place de la Maison-du-Citoyen"/><tag k="addr:street" v="Rue Victoria"/><tag k="addr:housenumber" v="94"/></node><node lat="45.440808" lon="-75.706519"  id="-42"  changeset="false" ><tag k="leisure" v="park"/><tag k="source" v="Ville de Gatineau"/><tag k="name" v="Parc Jacques-Cartier Nord"/><tag k="addr:street" v="Rue Laurier"/><tag k="addr:housenumber" v="350"/></node><node lat="45.468394" lon="-75.682236"  id="-43"  changeset="false" ><tag k="leisure" v="park"/><tag k="source" v="Ville de Gatineau"/><tag k="name" v="Parc de la Baie"/><tag k="addr:street" v="Rue Saint-Louis"/><tag k="addr:housenumber" v="988"/></node><node lat="45.440492" lon="-75.800068"  id="-44"  changeset="false" ><tag k="leisure" v="park"/><tag k="source" v="Ville de Gatineau"/><tag k="name" v="Parc d'Andromède"/><tag k="addr:street" v="Rue d'Andromède"/><tag k="addr:housenumber" v="220"/></node><node lat="45.442379" lon="-75.792508"  id="-45"  changeset="false" ><tag k="leisure" v="park"/><tag k="source" v="Ville de Gatineau"/><tag k="name" v="Parc de Ganymède"/><tag k="addr:street" v="Rue de Ganymède"/><tag k="addr:housenumber" v="146"/></node><node lat="45.447413" lon="-75.793169"  id="-46"  changeset="false" ><tag k="leisure" v="park"/><tag k="source" v="Ville de Gatineau"/><tag k="name" v="Parc de la Vaudaire"/><tag k="addr:street" v="Rue de la Vaudaire"/><tag k="addr:housenumber" v="210"/></node><node lat="45.496776" lon="-75.700462"  id="-47"  changeset="false" ><tag k="leisure" v="park"/><tag k="source" v="Ville de Gatineau"/><tag k="name" v="Parc Vignan"/><tag k="addr:street" v="Rue Albert-Einstein"/><tag k="addr:housenumber" v="205"/></node><node lat="45.493889" lon="-75.735202"  id="-48"  changeset="false" ><tag k="leisure" v="park"/><tag k="source" v="Ville de Gatineau"/><tag k="name" v="Parc du Marais-de-Touraine"/><tag k="addr:street" v="Rue de Trigance"/><tag k="addr:housenumber" v="36"/></node><node lat="45.424487" lon="-75.739317"  id="-49"  changeset="false" ><tag k="leisure" v="park"/><tag k="source" v="Ville de Gatineau"/><tag k="name" v="Parc Pharand"/><tag k="addr:street" v="Rue Pharand"/><tag k="addr:housenumber" v="11"/></node><node lat="45.496133" lon="-75.687389"  id="-50"  changeset="false" ><tag k="leisure" v="park"/><tag k="source" v="Ville de Gatineau"/><tag k="name" v="Parc de l'Oasis"/><tag k="addr:street" v="Rue de l'Oasis"/><tag k="addr:housenumber" v="883-A"/></node><node lat="45.500933" lon="-75.681021"  id="-51"  changeset="false" ><tag k="leisure" v="park"/><tag k="source" v="Ville de Gatineau"/><tag k="name" v="Corridor Laflamme-Nobert"/></node><node lat="45.462192" lon="-75.691498"  id="-52"  changeset="false" ><tag k="leisure" v="park"/><tag k="source" v="Ville de Gatineau"/><tag k="name" v="Parc de la Baie"/><tag k="addr:street" v="Rue Saint-Louis"/><tag k="addr:housenumber" v="988"/></node><node lat="45.490778" lon="-75.743945"  id="-53"  changeset="false" ><tag k="leisure" v="park"/><tag k="source" v="Ville de Gatineau"/><tag k="name" v="Corridor Père-Bériault"/></node><node lat="45.42854" lon="-75.761378"  id="-54"  changeset="false" ><tag k="leisure" v="park"/><tag k="source" v="Ville de Gatineau"/><tag k="name" v="Parc des Noisetiers"/><tag k="addr:street" v="Boulevard Saint-Raymond"/><tag k="addr:housenumber" v="241"/></node><node lat="45.506743" lon="-75.667654"  id="-55"  changeset="false" ><tag k="leisure" v="park"/><tag k="source" v="Ville de Gatineau"/><tag k="name" v="Corridor des Grands-Ravins"/></node><node lat="45.500263" lon="-75.747519"  id="-56"  changeset="false" ><tag k="leisure" v="park"/><tag k="source" v="Ville de Gatineau"/><tag k="name" v="Parc de la Sucrerie"/><tag k="addr:street" v="Chemin des Érables"/><tag k="addr:housenumber" v="77"/></node><node lat="45.441296" lon="-75.753162"  id="-57"  changeset="false" ><tag k="leisure" v="park"/><tag k="source" v="Ville de Gatineau"/><tag k="name" v="Parc du Lac-des-Fées"/><tag k="addr:street" v="Rue Gamelin"/><tag k="addr:housenumber" v="387"/></node><node lat="45.478177" lon="-75.678414"  id="-58"  changeset="false" ><tag k="leisure" v="park"/><tag k="source" v="Ville de Gatineau"/><tag k="name" v="Parc Melbourne"/><tag k="addr:street" v="Rue de Melbourne"/><tag k="addr:housenumber" v="248"/></node><node lat="45.494821" lon="-75.693588"  id="-59"  changeset="false" ><tag k="leisure" v="park"/><tag k="source" v="Ville de Gatineau"/><tag k="name" v="Parc de l'Hôpital"/><tag k="addr:street" v="Rue Jules-Bordet"/><tag k="addr:housenumber" v="217"/></node><node lat="45.451614" lon="-75.774861"  id="-60"  changeset="false" ><tag k="leisure" v="park"/><tag k="source" v="Ville de Gatineau"/><tag k="name" v="Parc de la Gatineau"/></node><node lat="45.500942" lon="-75.73612"  id="-61"  changeset="false" ><tag k="leisure" v="park"/><tag k="source" v="Ville de Gatineau"/><tag k="name" v="Parc Émard"/><tag k="addr:street" v="Rue Major"/><tag k="addr:housenumber" v="15"/></node><node lat="45.476024" lon="-75.786999"  id="-62"  changeset="false" ><tag k="leisure" v="park"/><tag k="source" v="Ville de Gatineau"/><tag k="name" v="Parc des Mineurs"/><tag k="addr:street" v="Boulevard de la Cité-des-Jeunes"/><tag k="addr:housenumber" v="1024"/></node><node lat="45.439664" lon="-75.783787"  id="-63"  changeset="false" ><tag k="leisure" v="park"/><tag k="source" v="Ville de Gatineau"/><tag k="name" v="Corridor du Ruisseau-des-Fées"/></node><node lat="45.475191" lon="-75.739175"  id="-64"  changeset="false" ><tag k="leisure" v="park"/><tag k="source" v="Ville de Gatineau"/><tag k="name" v="Parc du Havre"/><tag k="addr:street" v="Rue de l'Anse-aux-Bateaux"/><tag k="addr:housenumber" v="1"/></node><node lat="45.437138" lon="-75.795166"  id="-65"  changeset="false" ><tag k="leisure" v="park"/><tag k="source" v="Ville de Gatineau"/><tag k="name" v="Parc des Deux-Ruisseaux"/><tag k="addr:street" v="Rue du Tropique"/><tag k="addr:housenumber" v="22"/></node><node lat="45.469556" lon="-75.742843"  id="-66"  changeset="false" ><tag k="leisure" v="park"/><tag k="source" v="Ville de Gatineau"/><tag k="name" v="Parc Jean-Paul-Sabourin"/><tag k="addr:street" v="Rue Jean-Proulx"/><tag k="addr:housenumber" v="70"/></node><node lat="45.491136" lon="-75.699418"  id="-67"  changeset="false" ><tag k="leisure" v="park"/><tag k="source" v="Ville de Gatineau"/><tag k="name" v="Parc Ernest-Gaboury"/><tag k="addr:street" v="Rue de Morency"/><tag k="addr:housenumber" v="100"/></node><node lat="45.4693" lon="-75.754563"  id="-68"  changeset="false" ><tag k="leisure" v="park"/><tag k="source" v="Ville de Gatineau"/><tag k="name" v="Corridor Philemon-Wright"/><tag k="addr:street" v="Rue Charles-Albanel"/><tag k="addr:housenumber" v="60"/></node><node lat="45.423819" lon="-75.824235"  id="-69"  changeset="false" ><tag k="leisure" v="park"/><tag k="source" v="Ville de Gatineau"/><tag k="name" v="Parc de la Forêt-Boucher"/><tag k="addr:street" v="Chemin Antoine-Boucher"/><tag k="addr:housenumber" v="1151"/></node><node lat="45.43522" lon="-75.811483"  id="-70"  changeset="false" ><tag k="leisure" v="park"/><tag k="source" v="Ville de Gatineau"/><tag k="name" v="Parc d'Orsay"/><tag k="addr:street" v="Rue d'Orsay"/><tag k="addr:housenumber" v="195"/></node><node lat="45.426409" lon="-75.809325"  id="-71"  changeset="false" ><tag k="leisure" v="park"/><tag k="source" v="Ville de Gatineau"/><tag k="name" v="Parc du Marigot"/><tag k="addr:street" v="Rue du Marigot"/><tag k="addr:housenumber" v="100"/></node><node lat="45.506754" lon="-75.666913"  id="-72"  changeset="false" ><tag k="leisure" v="park"/><tag k="source" v="Ville de Gatineau"/><tag k="name" v="Parc des Deux-Ravins"/><tag k="addr:street" v="Rue Nobert"/><tag k="addr:housenumber" v="3"/></node><node lat="45.442764" lon="-75.736016"  id="-73"  changeset="false" ><tag k="leisure" v="park"/><tag k="source" v="Ville de Gatineau"/><tag k="name" v="Parc Saint-Bernardin"/><tag k="addr:street" v="Rue Bourque"/><tag k="addr:housenumber" v="51"/></node><node lat="45.439605" lon="-75.80748"  id="-74"  changeset="false" ><tag k="leisure" v="park"/><tag k="source" v="Ville de Gatineau"/><tag k="name" v="Parc du Luxembourg"/><tag k="addr:street" v="Rue du Luxembourg"/><tag k="addr:housenumber" v="106"/></node><node lat="45.435572" lon="-75.78584"  id="-75"  changeset="false" ><tag k="leisure" v="park"/><tag k="source" v="Ville de Gatineau"/><tag k="name" v="Corridor des ruisseaux Moore"/></node><node lat="45.447628" lon="-75.786668"  id="-76"  changeset="false" ><tag k="leisure" v="park"/><tag k="source" v="Ville de Gatineau"/><tag k="name" v="Parc Shamal"/><tag k="addr:street" v="Rue du Shamal"/><tag k="addr:housenumber" v="30"/></node><node lat="45.437276" lon="-75.746624"  id="-77"  changeset="false" ><tag k="leisure" v="park"/><tag k="source" v="Ville de Gatineau"/><tag k="name" v="Parc Saint-Benoît"/><tag k="addr:street" v="Rue Dumas"/><tag k="addr:housenumber" v="198"/></node><node lat="45.462528" lon="-75.75357"  id="-78"  changeset="false" ><tag k="leisure" v="park"/><tag k="source" v="Ville de Gatineau"/><tag k="name" v="Parc des Pins"/><tag k="addr:street" v="Rue Lavallée"/><tag k="addr:housenumber" v="61"/></node><node lat="45.424912" lon="-75.754327"  id="-79"  changeset="false" ><tag k="leisure" v="park"/><tag k="source" v="Ville de Gatineau"/><tag k="name" v="Parc Saint-Dominique"/><tag k="addr:street" v="Rue Gabriel-Lacasse"/><tag k="addr:housenumber" v="50"/></node><node lat="45.447914" lon="-75.751097"  id="-80"  changeset="false" ><tag k="leisure" v="park"/><tag k="source" v="Ville de Gatineau"/><tag k="name" v="Parc Cholette"/><tag k="addr:street" v="Boulevard de la Cité-des-Jeunes"/><tag k="addr:housenumber" v="156"/></node><node lat="45.444245" lon="-75.756352"  id="-81"  changeset="false" ><tag k="leisure" v="park"/><tag k="source" v="Ville de Gatineau"/><tag k="name" v="Parc des Lutins"/><tag k="addr:street" v="Rue des Lutins"/><tag k="addr:housenumber" v="21"/></node><node lat="45.439199" lon="-75.782659"  id="-82"  changeset="false" ><tag k="leisure" v="park"/><tag k="source" v="Ville de Gatineau"/><tag k="name" v="Parc du Plateau"/><tag k="addr:street" v="Rue de l'Atmosphère"/><tag k="addr:housenumber" v="155"/></node><node lat="45.423146" lon="-75.730589"  id="-83"  changeset="false" ><tag k="leisure" v="park"/><tag k="source" v="Ville de Gatineau"/><tag k="name" v="Parc Baker"/><tag k="addr:street" v="Rue Millar"/><tag k="addr:housenumber" v="62"/></node><node lat="45.43467" lon="-75.787246"  id="-84"  changeset="false" ><tag k="leisure" v="park"/><tag k="source" v="Ville de Gatineau"/><tag k="name" v="Parc des Quatre-Saisons"/><tag k="addr:street" v="Rue de l'Automne"/><tag k="addr:housenumber" v="14"/></node><node lat="45.488903" lon="-75.729904"  id="-85"  changeset="false" ><tag k="leisure" v="park"/><tag k="source" v="Ville de Gatineau"/><tag k="name" v="Corridor Beauvallon-Beausoleil"/><tag k="addr:street" v="Rue de Brignoles"/><tag k="addr:housenumber" v="19"/></node><node lat="45.480857" lon="-75.730946"  id="-86"  changeset="false" ><tag k="leisure" v="park"/><tag k="source" v="Ville de Gatineau"/><tag k="name" v="Corridor du Ruisseau Desjardins"/></node><node lat="45.465994" lon="-75.769188"  id="-87"  changeset="false" ><tag k="leisure" v="park"/><tag k="source" v="Ville de Gatineau"/><tag k="name" v="Parc Ravin-Bleu"/><tag k="addr:street" v="Rue du Ravin-Bleu"/><tag k="addr:housenumber" v="96"/></node><node lat="45.476472" lon="-75.783128"  id="-88"  changeset="false" ><tag k="leisure" v="park"/><tag k="source" v="Ville de Gatineau"/><tag k="name" v="Parc du Silex"/><tag k="addr:street" v="Rue du Silex"/><tag k="addr:housenumber" v="8"/></node><node lat="45.46033" lon="-75.744661"  id="-89"  changeset="false" ><tag k="leisure" v="park"/><tag k="source" v="Ville de Gatineau"/><tag k="name" v="Parc Wilfrid-Latour"/><tag k="addr:street" v="Rue Isabelle"/><tag k="addr:housenumber" v="159"/></node><node lat="45.584232" lon="-75.393294"  id="-90"  changeset="false" ><tag k="leisure" v="park"/><tag k="source" v="Ville de Gatineau"/><tag k="name" v="Parc Brady"/><tag k="addr:street" v="Rue Matte"/><tag k="addr:housenumber" v="620"/></node><node lat="45.398196" lon="-75.800627"  id="-91"  changeset="false" ><tag k="leisure" v="park"/><tag k="source" v="Ville de Gatineau"/><tag k="name" v="Parc Robert-Stewart"/><tag k="addr:street" v="Rue Lynn"/><tag k="addr:housenumber" v="56"/></node><node lat="45.469017" lon="-75.693746"  id="-92"  changeset="false" ><tag k="leisure" v="park"/><tag k="source" v="Ville de Gatineau"/><tag k="name" v="Parc Maisonneuve"/><tag k="addr:street" v="Rue de l'Abbé-Desautels"/><tag k="addr:housenumber" v="42"/></node><node lat="45.580011" lon="-75.401387"  id="-93"  changeset="false" ><tag k="leisure" v="park"/><tag k="source" v="Ville de Gatineau"/><tag k="name" v="Parc du 8 octobre 1906"/><tag k="addr:street" v="Rue Maclaren Est"/><tag k="addr:housenumber" v="771"/></node><node lat="45.543426" lon="-75.416798"  id="-94"  changeset="false" ><tag k="leisure" v="park"/><tag k="source" v="Ville de Gatineau"/><tag k="name" v="Parc Saint-Jean-de-Brébeuf"/><tag k="addr:street" v="Chemin de Montréal Est"/><tag k="addr:housenumber" v="32"/></node><node lat="45.543911" lon="-75.419507"  id="-95"  changeset="false" ><tag k="leisure" v="park"/><tag k="source" v="Ville de Gatineau"/><tag k="name" v="Parc de l'Église"/><tag k="addr:street" v="Chemin de Montréal Est"/><tag k="addr:housenumber" v="1"/></node><node lat="45.570904" lon="-75.428942"  id="-96"  changeset="false" ><tag k="leisure" v="park"/><tag k="source" v="Ville de Gatineau"/><tag k="name" v="Parc Périard"/><tag k="addr:street" v="Rue Albert-Fillion"/><tag k="addr:housenumber" v="870"/></node><node lat="45.57927" lon="-75.423585"  id="-97"  changeset="false" ><tag k="leisure" v="park"/><tag k="source" v="Ville de Gatineau"/><tag k="name" v="Parc des Lions"/><tag k="addr:street" v="Rue Gérard-Gauthier"/><tag k="addr:housenumber" v="120"/></node><node lat="45.433626" lon="-75.80139"  id="-98"  changeset="false" ><tag k="leisure" v="park"/><tag k="source" v="Ville de Gatineau"/><tag k="name" v="Parc Central"/><tag k="addr:street" v="Rue de Bruxelles"/><tag k="addr:housenumber" v="205"/></node><node lat="45.431852" lon="-75.794382"  id="-99"  changeset="false" ><tag k="leisure" v="park"/><tag k="source" v="Ville de Gatineau"/><tag k="name" v="Parc de Bruxelles"/><tag k="addr:street" v="Rue de Bruxelles"/><tag k="addr:housenumber" v="75"/></node><node lat="45.426918" lon="-75.715535"  id="-100"  changeset="false" ><tag k="leisure" v="park"/><tag k="source" v="Ville de Gatineau"/><tag k="name" v="Place Aubry"/><tag k="addr:street" v="Rue Aubry"/><tag k="addr:housenumber" v="1-A"/></node><node lat="45.499617" lon="-75.701823"  id="-101"  changeset="false" ><tag k="leisure" v="park"/><tag k="source" v="Ville de Gatineau"/><tag k="name" v="Corridor de l'Hopital-Côtes des neiges"/></node><node lat="45.434718" lon="-75.718824"  id="-102"  changeset="false" ><tag k="leisure" v="park"/><tag k="source" v="Ville de Gatineau"/><tag k="name" v="Corridor du Sentier-de-l'Île"/></node><node lat="45.492457" lon="-75.731395"  id="-103"  changeset="false" ><tag k="leisure" v="park"/><tag k="source" v="Ville de Gatineau"/><tag k="name" v="Parc de Trigance"/><tag k="addr:street" v="Rue de Trigance"/><tag k="addr:housenumber" v="36"/></node><node lat="45.442137" lon="-75.788006"  id="-104"  changeset="false" ><tag k="leisure" v="park"/><tag k="source" v="Ville de Gatineau"/><tag k="name" v="Parc de l'Arc-en-Ciel"/><tag k="addr:street" v="Rue de l'Arc-en-Ciel"/><tag k="addr:housenumber" v="81"/></node><node lat="45.501914" lon="-75.612461"  id="-105"  changeset="false" ><tag k="leisure" v="park"/><tag k="source" v="Ville de Gatineau"/><tag k="name" v="Parc Edgar-Degas"/><tag k="addr:street" v="Rue Edgar-Degas"/><tag k="addr:housenumber" v="132"/></node><node lat="45.546856" lon="-75.422011"  id="-106"  changeset="false" ><tag k="leisure" v="park"/><tag k="source" v="Ville de Gatineau"/><tag k="name" v="Parc Armand-Daddy-Lacelle"/><tag k="addr:street" v="Chemin de Masson"/><tag k="addr:housenumber" v="850"/></node><node lat="45.507452" lon="-75.663632"  id="-107"  changeset="false" ><tag k="leisure" v="park"/><tag k="source" v="Ville de Gatineau"/><tag k="name" v="Parc des Deux-Ravins"/><tag k="addr:street" v="Rue Nobert"/><tag k="addr:housenumber" v="81"/></node><node lat="45.414543" lon="-75.802248"  id="-108"  changeset="false" ><tag k="leisure" v="park"/><tag k="source" v="Ville de Gatineau"/><tag k="name" v="Parc de la Petite-Nation"/><tag k="addr:street" v="Rue Alphonse-Daudet"/><tag k="addr:housenumber" v="50"/></node><node lat="45.543087" lon="-75.42829"  id="-109"  changeset="false" ><tag k="leisure" v="park"/><tag k="source" v="Ville de Gatineau"/><tag k="name" v="Parc"/><tag k="addr:street" v="Chemin de Montréal Ouest"/><tag k="addr:housenumber" v="1"/></node><node lat="45.496772" lon="-75.570127"  id="-110"  changeset="false" ><tag k="leisure" v="park"/><tag k="source" v="Ville de Gatineau"/><tag k="name" v="Parc Jeannine-Grégoire-Ross"/><tag k="addr:street" v="Rue Jeannine-Grégoire-Ross"/><tag k="addr:housenumber" v="431"/></node><node lat="45.49694" lon="-75.577531"  id="-111"  changeset="false" ><tag k="leisure" v="park"/><tag k="source" v="Ville de Gatineau"/><tag k="name" v="Parc Camille"/><tag k="addr:street" v="Rue Camille"/><tag k="addr:housenumber" v="1395"/></node><node lat="45.545393" lon="-75.437673"  id="-112"  changeset="false" ><tag k="leisure" v="park"/><tag k="source" v="Ville de Gatineau"/><tag k="name" v="Parc Jean-Baptiste-Routhier"/><tag k="addr:street" v="Rue Jean-Baptiste-Routhier"/><tag k="addr:housenumber" v="205"/></node><node lat="45.509854" lon="-75.583822"  id="-113"  changeset="false" ><tag k="leisure" v="park"/><tag k="source" v="Ville de Gatineau"/><tag k="name" v="Parc des Résineux"/><tag k="addr:street" v="Rue des Résineux"/><tag k="addr:housenumber" v="36"/></node><node lat="45.49232" lon="-75.580039"  id="-114"  changeset="false" ><tag k="leisure" v="park"/><tag k="source" v="Ville de Gatineau"/><tag k="name" v="Parc des Pêcheurs"/><tag k="addr:street" v="Rue Notre-Dame"/><tag k="addr:housenumber" v="1234"/></node><node lat="45.421973" lon="-75.803478"  id="-115"  changeset="false" ><tag k="leisure" v="park"/><tag k="source" v="Ville de Gatineau"/><tag k="name" v="Parc D'Arcy-McGee–Symmes"/><tag k="addr:street" v="Rue de la Boussole"/><tag k="addr:housenumber" v="100"/></node><node lat="45.497016" lon="-75.593868"  id="-116"  changeset="false" ><tag k="leisure" v="park"/><tag k="source" v="Ville de Gatineau"/><tag k="name" v="Parc Williams"/><tag k="addr:street" v="Rue des Sables"/><tag k="addr:housenumber" v="165"/></node><node lat="45.439208" lon="-75.80116"  id="-117"  changeset="false" ><tag k="leisure" v="park"/><tag k="source" v="Ville de Gatineau"/><tag k="name" v="Parc de Londres"/><tag k="addr:street" v="Rue de Londres"/><tag k="addr:housenumber" v="70"/></node><node lat="45.426016" lon="-75.797545"  id="-118"  changeset="false" ><tag k="leisure" v="park"/><tag k="source" v="Ville de Gatineau"/><tag k="name" v="Parc du Manoir-Champlain"/><tag k="addr:street" v="Rue Robert-Pilon"/><tag k="addr:housenumber" v="62"/></node><node lat="45.380357" lon="-75.804912"  id="-119"  changeset="false" ><tag k="leisure" v="park"/><tag k="source" v="Ville de Gatineau"/><tag k="name" v="Parc des Rapides-Deschênes"/><tag k="addr:street" v="Chemin Vanier"/><tag k="addr:housenumber" v="6"/></node><node lat="45.406368" lon="-75.80292"  id="-120"  changeset="false" ><tag k="leisure" v="park"/><tag k="source" v="Ville de Gatineau"/><tag k="name" v="Parc Morley-Walters"/><tag k="addr:street" v="Chemin Morley-Walters"/><tag k="addr:housenumber" v="55"/></node><node lat="45.388333" lon="-75.83263"  id="-121"  changeset="false" ><tag k="leisure" v="park"/><tag k="source" v="Ville de Gatineau"/><tag k="name" v="Parc du Languedoc"/><tag k="addr:street" v="Rue du Languedoc"/><tag k="addr:housenumber" v="50"/></node><node lat="45.386891" lon="-75.806034"  id="-122"  changeset="false" ><tag k="leisure" v="park"/><tag k="source" v="Ville de Gatineau"/><tag k="name" v="Parc de Cherbourg"/><tag k="addr:street" v="Rue de Cherbourg"/><tag k="addr:housenumber" v="10"/></node><node lat="45.392907" lon="-75.825793"  id="-123"  changeset="false" ><tag k="leisure" v="park"/><tag k="source" v="Ville de Gatineau"/><tag k="name" v="Parc Écologique"/><tag k="addr:street" v="Chemin Fraser"/><tag k="addr:housenumber" v="302"/></node><node lat="45.389918" lon="-75.828998"  id="-124"  changeset="false" ><tag k="leisure" v="park"/><tag k="source" v="Ville de Gatineau"/><tag k="name" v="Parc Eastern"/><tag k="addr:street" v="Rue Glenwood"/><tag k="addr:housenumber" v="43"/></node><node lat="45.397941" lon="-75.826729"  id="-125"  changeset="false" ><tag k="leisure" v="park"/><tag k="source" v="Ville de Gatineau"/><tag k="name" v="Parc Paul-Pelletier"/><tag k="addr:street" v="Chemin d'Aylmer"/><tag k="addr:housenumber" v="325"/></node><node lat="45.381592" lon="-75.824112"  id="-126"  changeset="false" ><tag k="leisure" v="park"/><tag k="source" v="Ville de Gatineau"/><tag k="name" v="Parc de la Bastide"/><tag k="addr:street" v="Impasse de la Bastide"/><tag k="addr:housenumber" v="119"/></node><node lat="45.389972" lon="-75.817275"  id="-127"  changeset="false" ><tag k="leisure" v="park"/><tag k="source" v="Ville de Gatineau"/><tag k="name" v="Parc Victor-Beaudry"/><tag k="addr:street" v="Rue Victor-Beaudry"/><tag k="addr:housenumber" v="107"/></node><node lat="45.39249" lon="-75.853189"  id="-128"  changeset="false" ><tag k="leisure" v="park"/><tag k="source" v="Ville de Gatineau"/><tag k="name" v="Parc Guertin"/><tag k="addr:street" v="Rue Oscar-Guertin"/><tag k="addr:housenumber" v="33"/></node><node lat="45.412088" lon="-75.859802"  id="-129"  changeset="false" ><tag k="leisure" v="park"/><tag k="source" v="Ville de Gatineau"/><tag k="name" v="Parc des Vieux-Moulins"/><tag k="addr:street" v="Rue des Vieux-Moulins"/><tag k="addr:housenumber" v="60"/></node><node lat="45.384669" lon="-75.831873"  id="-130"  changeset="false" ><tag k="leisure" v="park"/><tag k="source" v="Ville de Gatineau"/><tag k="name" v="Parc Louis-Roy"/><tag k="addr:street" v="Rue Louis-Roy"/><tag k="addr:housenumber" v="5"/></node><node lat="45.383576" lon="-75.818104"  id="-131"  changeset="false" ><tag k="leisure" v="park"/><tag k="source" v="Ville de Gatineau"/><tag k="name" v="Parc Riverain"/><tag k="addr:street" v="Rue Lamoureux"/><tag k="addr:housenumber" v="1"/></node><node lat="45.394992" lon="-75.84118"  id="-132"  changeset="false" ><tag k="leisure" v="park"/><tag k="source" v="Ville de Gatineau"/><tag k="name" v="Parc Frank-Robinson"/><tag k="addr:street" v="Rue Principale"/><tag k="addr:housenumber" v="150-A"/></node><node lat="45.422526" lon="-75.85745"  id="-133"  changeset="false" ><tag k="leisure" v="park"/><tag k="source" v="Ville de Gatineau"/><tag k="name" v="Parc Antoine-Boucher"/><tag k="addr:street" v="Rue du Raton-Laveur"/><tag k="addr:housenumber" v="215"/></node><node lat="45.423776" lon="-75.843639"  id="-134"  changeset="false" ><tag k="leisure" v="park"/><tag k="source" v="Ville de Gatineau"/><tag k="name" v="Parc Jean-Louis-Morin"/><tag k="addr:street" v="Rue Jean-Louis-Morin"/><tag k="addr:housenumber" v="51"/></node><node lat="45.394298" lon="-75.833853"  id="-135"  changeset="false" ><tag k="leisure" v="park"/><tag k="source" v="Ville de Gatineau"/><tag k="name" v="Parc de la Terrasse Ouest"/><tag k="addr:street" v="Rue de la Terrasse"/><tag k="addr:housenumber" v="53-A"/></node><node lat="45.389446" lon="-75.835887"  id="-136"  changeset="false" ><tag k="leisure" v="park"/><tag k="source" v="Ville de Gatineau"/><tag k="name" v="Parc Magique"/><tag k="addr:street" v="Rue du Claret"/><tag k="addr:housenumber" v="64-A"/></node><node lat="45.381232" lon="-75.831581"  id="-137"  changeset="false" ><tag k="leisure" v="park"/><tag k="source" v="Ville de Gatineau"/><tag k="name" v="Parc de Fronsac"/><tag k="addr:street" v="Rue de Fronsac"/><tag k="addr:housenumber" v="30"/></node><node lat="45.41305" lon="-75.827813"  id="-138"  changeset="false" ><tag k="leisure" v="park"/><tag k="source" v="Ville de Gatineau"/><tag k="name" v="Parc du Britannia"/><tag k="addr:street" v="Rue du Britannia"/><tag k="addr:housenumber" v="75"/></node><node lat="45.415346" lon="-75.805295"  id="-139"  changeset="false" ><tag k="leisure" v="park"/><tag k="source" v="Ville de Gatineau"/><tag k="name" v="Parc des Abénaquis"/><tag k="addr:street" v="Rue des Hurons"/><tag k="addr:housenumber" v="50-A"/></node><node lat="45.382251" lon="-75.835495"  id="-140"  changeset="false" ><tag k="leisure" v="park"/><tag k="source" v="Ville de Gatineau"/><tag k="name" v="Parc de la Conservation"/><tag k="addr:street" v="Rue Pine"/><tag k="addr:housenumber" v="14-A"/></node><node lat="45.403599" lon="-75.863552"  id="-141"  changeset="false" ><tag k="leisure" v="park"/><tag k="source" v="Ville de Gatineau"/><tag k="name" v="Parc Claude-Rioux"/><tag k="addr:street" v="Rue des Hautes-Rives"/><tag k="addr:housenumber" v="201"/></node><node lat="45.395396" lon="-75.844049"  id="-142"  changeset="false" ><tag k="leisure" v="park"/><tag k="source" v="Ville de Gatineau"/><tag k="name" v="Parc Commémoratif"/><tag k="addr:street" v="Rue Principale"/><tag k="addr:housenumber" v="121"/></node><node lat="45.395299" lon="-75.855308"  id="-143"  changeset="false" ><tag k="leisure" v="park"/><tag k="source" v="Ville de Gatineau"/><tag k="name" v="Parc de l'Imaginaire"/><tag k="addr:street" v="Rue Front"/><tag k="addr:housenumber" v="9-A"/></node><node lat="45.413817" lon="-75.888837"  id="-144"  changeset="false" ><tag k="leisure" v="park"/><tag k="source" v="Ville de Gatineau"/><tag k="name" v="Parc Queen"/><tag k="addr:street" v="Chemin Queen's Park"/><tag k="addr:housenumber" v="1145"/></node><node lat="45.408818" lon="-75.79848"  id="-145"  changeset="false" ><tag k="leisure" v="park"/><tag k="source" v="Ville de Gatineau"/><tag k="name" v="Parc Jean-De La Fontaine"/><tag k="addr:street" v="Rue Jean-De La Fontaine"/><tag k="addr:housenumber" v="49-A"/></node><node lat="45.416023" lon="-75.846775"  id="-146"  changeset="false" ><tag k="leisure" v="park"/><tag k="source" v="Ville de Gatineau"/><tag k="name" v="Parc Clétrem"/><tag k="addr:street" v="Rue du Lys"/><tag k="addr:housenumber" v="60"/></node><node lat="45.407457" lon="-75.873781"  id="-147"  changeset="false" ><tag k="leisure" v="park"/><tag k="source" v="Ville de Gatineau"/><tag k="name" v="Parc de la Spartan"/><tag k="addr:street" v="Rue de la Spartan"/><tag k="addr:housenumber" v="25"/></node><node lat="45.414567" lon="-75.852052"  id="-148"  changeset="false" ><tag k="leisure" v="park"/><tag k="source" v="Ville de Gatineau"/><tag k="name" v="Parc du Carcajou"/><tag k="addr:street" v="Rue du Carcajou"/><tag k="addr:housenumber" v="100"/></node><node lat="45.413427" lon="-75.856335"  id="-149"  changeset="false" ><tag k="leisure" v="park"/><tag k="source" v="Ville de Gatineau"/><tag k="name" v="Parc du Renard"/><tag k="addr:street" v="Rue du Renard"/><tag k="addr:housenumber" v="35"/></node><node lat="45.410173" lon="-75.865294"  id="-150"  changeset="false" ><tag k="leisure" v="park"/><tag k="source" v="Ville de Gatineau"/><tag k="name" v="Parc de la Fabrique"/><tag k="addr:street" v="Rue de la Fabrique"/><tag k="addr:housenumber" v="180"/></node></osm>