<?xml version="1.0" encoding="UTF-8"?><osm version="0.6" generator="https://github.com/Rub21/geojson2osm"><node lat="45.43543" lon="-75.734891"  id="-1"  changeset="false" ><tag k="amenity" v="community_centre"/><tag k="building" v="public"/><tag k="operator" v="Ville de Gatineau"/><tag k="source" v="Ville de Gatineau"/><tag k="name" v="Centre récréatif Saint-Joseph"/><tag k="addr:street" v="Rue Berri"/><tag k="addr:housenumber" v="122"/></node><node lat="45.457858" lon="-75.767525"  id="-2"  changeset="false" ><tag k="building" v="public"/><tag k="operator" v="Ville de Gatineau"/><tag k="source" v="Ville de Gatineau"/><tag k="name" v="Cabane en bois rond"/><tag k="addr:street" v="Boulevard de la Cité-des-Jeunes"/><tag k="addr:housenumber" v="331"/><tag k="description" v="Édifice communautaire"/></node><node lat="45.436163" lon="-75.736858"  id="-3"  changeset="false" ><tag k="building" v="public"/><tag k="operator" v="Ville de Gatineau"/><tag k="source" v="Ville de Gatineau"/><tag k="name" v="Chalet Larocque"/><tag k="addr:street" v="Rue Fortier"/><tag k="addr:housenumber" v="2"/><tag k="description" v="Édifice communautaire"/></node><node lat="45.472556" lon="-75.764608"  id="-4"  changeset="false" ><tag k="amenity" v="community_centre"/><tag k="building" v="public"/><tag k="operator" v="Ville de Gatineau"/><tag k="source" v="Ville de Gatineau"/><tag k="name" v="Centre communautaire des Hautes-Plaines"/><tag k="addr:street" v="Boulevard des Hautes-Plaines"/><tag k="addr:housenumber" v="479"/></node><node lat="45.433495" lon="-75.740689"  id="-5"  changeset="false" ><tag k="building" v="public"/><tag k="operator" v="Ville de Gatineau"/><tag k="source" v="Ville de Gatineau"/><tag k="name" v="Chalet Saint-Jean"/><tag k="addr:street" v="Rue Labelle"/><tag k="addr:housenumber" v="40"/><tag k="description" v="Édifice communautaire"/></node><node lat="45.475297" lon="-75.678909"  id="-6"  changeset="false" ><tag k="building" v="public"/><tag k="operator" v="Ville de Gatineau"/><tag k="source" v="Ville de Gatineau"/><tag k="name" v="Chalet Tecumseh"/><tag k="addr:street" v="Chemin de la Savane"/><tag k="addr:housenumber" v="280"/><tag k="description" v="Édifice communautaire"/></node><node lat="45.483658" lon="-75.709209"  id="-7"  changeset="false" ><tag k="building" v="public"/><tag k="operator" v="Ville de Gatineau"/><tag k="source" v="Ville de Gatineau"/><tag k="name" v="Chalet Marcel-Gladu (balle)"/><tag k="addr:street" v="Rue de Bourassa"/><tag k="addr:housenumber" v="81"/><tag k="description" v="Édifice communautaire"/></node><node lat="45.469987" lon="-75.689488"  id="-8"  changeset="false" ><tag k="amenity" v="community_centre"/><tag k="building" v="public"/><tag k="operator" v="Ville de Gatineau"/><tag k="source" v="Ville de Gatineau"/><tag k="name" v="Centre communautaire Saint-Rosaire"/><tag k="addr:street" v="Rue Saint-Arthur"/><tag k="addr:housenumber" v="5"/></node><node lat="45.474314" lon="-75.725444"  id="-9"  changeset="false" ><tag k="building" v="public"/><tag k="operator" v="Ville de Gatineau"/><tag k="source" v="Ville de Gatineau"/><tag k="name" v="Chalet Rivièra #2"/><tag k="addr:street" v="Rue d'Auvergne"/><tag k="addr:housenumber" v="22"/><tag k="description" v="Édifice communautaire"/></node><node lat="45.432832" lon="-75.725652"  id="-10"  changeset="false" ><tag k="amenity" v="community_centre"/><tag k="building" v="public"/><tag k="operator" v="Ville de Gatineau"/><tag k="source" v="Ville de Gatineau"/><tag k="name" v="Chalet de service du camping Guertin"/><tag k="addr:street" v="Boulevard des Allumettières"/><tag k="addr:housenumber" v="360"/></node><node lat="45.470643" lon="-75.688701"  id="-11"  changeset="false" ><tag k="building" v="public"/><tag k="operator" v="Ville de Gatineau"/><tag k="source" v="Ville de Gatineau"/><tag k="name" v="Chalet Saint-Rosaire"/><tag k="addr:street" v="Rue Saint-Rosaire"/><tag k="addr:housenumber" v="52"/><tag k="description" v="Édifice communautaire"/></node><node lat="45.479881" lon="-75.723755"  id="-12"  changeset="false" ><tag k="building" v="public"/><tag k="operator" v="Ville de Gatineau"/><tag k="source" v="Ville de Gatineau"/><tag k="name" v="Chalet Saint-Cœur de Marie"/><tag k="addr:street" v="Avenue Gatineau"/><tag k="addr:housenumber" v="70"/><tag k="description" v="Édifice communautaire"/></node><node lat="45.431764" lon="-75.716416"  id="-13"  changeset="false" ><tag k="amenity" v="community_centre"/><tag k="building" v="public"/><tag k="operator" v="Ville de Gatineau"/><tag k="source" v="Ville de Gatineau"/><tag k="name" v="Centre communautaire Fontaine"/><tag k="addr:street" v="Rue Charlevoix"/><tag k="addr:housenumber" v="120"/></node><node lat="45.428323" lon="-75.722295"  id="-14"  changeset="false" ><tag k="amenity" v="community_centre"/><tag k="building" v="public"/><tag k="operator" v="Ville de Gatineau"/><tag k="source" v="Ville de Gatineau"/><tag k="name" v="Centre communautaire Sainte-Bernadette"/><tag k="addr:street" v="Rue Pilon"/><tag k="addr:housenumber" v="40"/></node><node lat="45.445993" lon="-75.714537"  id="-15"  changeset="false" ><tag k="amenity" v="community_centre"/><tag k="building" v="public"/><tag k="operator" v="Ville de Gatineau"/><tag k="source" v="Ville de Gatineau"/><tag k="name" v="Centre communautaire Edgar-Chénier"/><tag k="addr:street" v="Rue Bériault"/><tag k="addr:housenumber" v="10"/></node><node lat="45.470267" lon="-75.724063"  id="-16"  changeset="false" ><tag k="amenity" v="community_centre"/><tag k="building" v="public"/><tag k="operator" v="Ville de Gatineau"/><tag k="source" v="Ville de Gatineau"/><tag k="name" v="Centre communautaire de la Riviera"/><tag k="addr:street" v="Rue de Picardie"/><tag k="addr:housenumber" v="12"/></node><node lat="45.446018" lon="-75.715915"  id="-17"  changeset="false" ><tag k="amenity" v="community_centre"/><tag k="building" v="public"/><tag k="operator" v="Ville de Gatineau"/><tag k="source" v="Ville de Gatineau"/><tag k="name" v="Centre communautaire Père-Arthur-Guertin"/><tag k="addr:street" v="Rue Bériault"/><tag k="addr:housenumber" v="16"/></node><node lat="45.428226" lon="-75.73297"  id="-18"  changeset="false" ><tag k="amenity" v="community_centre"/><tag k="building" v="public"/><tag k="operator" v="Ville de Gatineau"/><tag k="source" v="Ville de Gatineau"/><tag k="name" v="Centre communautaire Yvon-A.-Grégoire"/><tag k="addr:street" v="Boulevard Saint-Joseph"/><tag k="addr:housenumber" v="70"/></node><node lat="45.476368" lon="-75.716143"  id="-19"  changeset="false" ><tag k="building" v="public"/><tag k="operator" v="Ville de Gatineau"/><tag k="source" v="Ville de Gatineau"/><tag k="name" v="Chalet Georges-Étienne-Cartier"/><tag k="addr:street" v="Rue de Savoie"/><tag k="addr:housenumber" v="36"/><tag k="description" v="Édifice communautaire"/></node><node lat="45.466552" lon="-75.699005"  id="-20"  changeset="false" ><tag k="amenity" v="community_centre"/><tag k="building" v="public"/><tag k="operator" v="Ville de Gatineau"/><tag k="source" v="Ville de Gatineau"/><tag k="name" v="Centre communautaire Daniel-Lafortune"/><tag k="addr:street" v="Rue de Pointe-Gatineau"/><tag k="addr:housenumber" v="448"/></node><node lat="45.434877" lon="-75.718734"  id="-21"  changeset="false" ><tag k="amenity" v="community_centre"/><tag k="building" v="public"/><tag k="operator" v="Ville de Gatineau"/><tag k="source" v="Ville de Gatineau"/><tag k="name" v="Centre communautaire Dupuis"/><tag k="addr:street" v="Rue Isidore-Ostiguy"/><tag k="addr:housenumber" v="50"/></node><node lat="45.4744" lon="-75.725905"  id="-22"  changeset="false" ><tag k="amenity" v="community_centre"/><tag k="building" v="public"/><tag k="operator" v="Ville de Gatineau"/><tag k="source" v="Ville de Gatineau"/><tag k="name" v="Centre communautaire Gérard-Pezzani"/><tag k="addr:street" v="Rue d'Auvergne"/><tag k="addr:housenumber" v="22"/></node><node lat="45.46431" lon="-75.707064"  id="-23"  changeset="false" ><tag k="amenity" v="community_centre"/><tag k="building" v="public"/><tag k="operator" v="Ville de Gatineau"/><tag k="source" v="Ville de Gatineau"/><tag k="name" v="Centre communautaire Saint-Jean-de-Brébeuf"/><tag k="addr:street" v="Rue Moreau"/><tag k="addr:housenumber" v="70"/></node><node lat="45.494607" lon="-75.580651"  id="-24"  changeset="false" ><tag k="amenity" v="community_centre"/><tag k="building" v="public"/><tag k="operator" v="Ville de Gatineau"/><tag k="source" v="Ville de Gatineau"/><tag k="name" v="Centre communautaire Saint-Gérard"/><tag k="addr:street" v="Boulevard Maloney Est"/><tag k="addr:housenumber" v="1259"/></node><node lat="45.593442" lon="-75.418832"  id="-25"  changeset="false" ><tag k="building" v="public"/><tag k="operator" v="Ville de Gatineau"/><tag k="source" v="Ville de Gatineau"/><tag k="name" v="Chalet R.W.-Scullion"/><tag k="addr:street" v="Avenue de Buckingham"/><tag k="addr:housenumber" v="265"/><tag k="description" v="Édifice communautaire"/></node><node lat="45.526071" lon="-75.489217"  id="-26"  changeset="false" ><tag k="amenity" v="community_centre"/><tag k="building" v="public"/><tag k="operator" v="Ville de Gatineau"/><tag k="source" v="Ville de Gatineau"/><tag k="name" v="Centre communautaire d'Anger"/><tag k="addr:street" v="Rue Yvon-Pichette"/><tag k="addr:housenumber" v="1100"/></node><node lat="45.596659" lon="-75.416641"  id="-27"  changeset="false" ><tag k="building" v="public"/><tag k="operator" v="Ville de Gatineau"/><tag k="source" v="Ville de Gatineau"/><tag k="name" v="Chalet Gendron"/><tag k="addr:street" v="Rue Judge"/><tag k="addr:housenumber" v="130"/><tag k="description" v="Édifice communautaire"/></node><node lat="45.526346" lon="-75.488446"  id="-28"  changeset="false" ><tag k="building" v="public"/><tag k="operator" v="Ville de Gatineau"/><tag k="source" v="Ville de Gatineau"/><tag k="name" v="Chalet Gilles-Maisonneuve"/><tag k="addr:street" v="Rue Yvon-Pichette"/><tag k="addr:housenumber" v="1100"/><tag k="description" v="Édifice communautaire"/></node><node lat="45.542576" lon="-75.414363"  id="-29"  changeset="false" ><tag k="building" v="public"/><tag k="operator" v="Ville de Gatineau"/><tag k="source" v="Ville de Gatineau"/><tag k="name" v="Chalet Jack-Eyamie"/><tag k="addr:street" v="Rue du Bassin"/><tag k="addr:housenumber" v="40"/><tag k="description" v="Édifice communautaire"/></node><node lat="45.580659" lon="-75.409531"  id="-30"  changeset="false" ><tag k="building" v="public"/><tag k="operator" v="Ville de Gatineau"/><tag k="source" v="Ville de Gatineau"/><tag k="name" v="Chalet Robitaille"/><tag k="addr:street" v="Rue Churchill"/><tag k="addr:housenumber" v="145"/><tag k="description" v="Édifice communautaire"/></node><node lat="45.579046" lon="-75.423748"  id="-31"  changeset="false" ><tag k="building" v="public"/><tag k="operator" v="Ville de Gatineau"/><tag k="source" v="Ville de Gatineau"/><tag k="name" v="Chalet des Lions"/><tag k="addr:street" v="Rue Bergeron"/><tag k="addr:housenumber" v="674"/><tag k="description" v="Édifice communautaire"/></node><node lat="45.568411" lon="-75.424209"  id="-32"  changeset="false" ><tag k="building" v="public"/><tag k="operator" v="Ville de Gatineau"/><tag k="source" v="Ville de Gatineau"/><tag k="name" v="Chalet Beauchampville"/><tag k="addr:street" v="Rue Georges"/><tag k="addr:housenumber" v="930"/><tag k="description" v="Édifice communautaire"/></node><node lat="45.535967" lon="-75.483661"  id="-33"  changeset="false" ><tag k="amenity" v="community_centre"/><tag k="building" v="public"/><tag k="operator" v="Ville de Gatineau"/><tag k="source" v="Ville de Gatineau"/><tag k="name" v="Complexe Jeunesse"/><tag k="addr:street" v="Rue de Neuville"/><tag k="addr:housenumber" v="1111"/></node><node lat="45.492343" lon="-75.604562"  id="-34"  changeset="false" ><tag k="building" v="public"/><tag k="operator" v="Ville de Gatineau"/><tag k="source" v="Ville de Gatineau"/><tag k="name" v="Chalet Louis-Philion"/><tag k="addr:street" v="Rue du Curé-Labelle"/><tag k="addr:housenumber" v="13"/><tag k="description" v="Édifice communautaire"/></node><node lat="45.504441" lon="-75.652254"  id="-35"  changeset="false" ><tag k="amenity" v="community_centre"/><tag k="building" v="public"/><tag k="operator" v="Ville de Gatineau"/><tag k="source" v="Ville de Gatineau"/><tag k="name" v="Pavillon La Vérendrye"/><tag k="addr:street" v="Rue Main"/><tag k="addr:housenumber" v="730"/></node><node lat="45.596264" lon="-75.41986"  id="-36"  changeset="false" ><tag k="building" v="public"/><tag k="operator" v="Ville de Gatineau"/><tag k="source" v="Ville de Gatineau"/><tag k="name" v="Pavillon du centre nautique de la Liève"/><tag k="addr:street" v="Avenue de Buckingham"/><tag k="addr:housenumber" v="255"/><tag k="description" v="Édifice communautaire"/></node><node lat="45.489492" lon="-75.654696"  id="-37"  changeset="false" ><tag k="building" v="public"/><tag k="operator" v="Ville de Gatineau"/><tag k="source" v="Ville de Gatineau"/><tag k="name" v="Chalet Hétu"/><tag k="addr:street" v="Rue Hétu"/><tag k="addr:housenumber" v="333"/><tag k="description" v="Édifice communautaire"/></node><node lat="45.582566" lon="-75.408851"  id="-38"  changeset="false" ><tag k="building" v="public"/><tag k="operator" v="Ville de Gatineau"/><tag k="source" v="Ville de Gatineau"/><tag k="name" v="Chalet McAndrew # 2"/><tag k="addr:street" v="Rue John F.-Kennedy"/><tag k="addr:housenumber" v="170"/><tag k="description" v="Édifice communautaire"/></node><node lat="45.591076" lon="-75.411174"  id="-39"  changeset="false" ><tag k="amenity" v="community_centre"/><tag k="building" v="public"/><tag k="operator" v="Ville de Gatineau"/><tag k="source" v="Ville de Gatineau"/><tag k="name" v="Centre communautaire de Buckingham"/><tag k="addr:street" v="Rue Joseph"/><tag k="addr:housenumber" v="181"/></node><node lat="45.487965" lon="-75.646183"  id="-40"  changeset="false" ><tag k="building" v="public"/><tag k="operator" v="Ville de Gatineau"/><tag k="source" v="Ville de Gatineau"/><tag k="name" v="Club Friendship"/><tag k="addr:street" v="Rue de l'Abbé-Murray"/><tag k="addr:housenumber" v="300"/><tag k="description" v="Édifice communautaire"/></node><node lat="45.582472" lon="-75.409179"  id="-41"  changeset="false" ><tag k="building" v="public"/><tag k="operator" v="Ville de Gatineau"/><tag k="source" v="Ville de Gatineau"/><tag k="name" v="Chalet McAndrew # 1"/><tag k="addr:street" v="Rue John F.-Kennedy"/><tag k="addr:housenumber" v="170"/><tag k="description" v="Édifice communautaire"/></node><node lat="45.487451" lon="-75.595373"  id="-42"  changeset="false" ><tag k="building" v="public"/><tag k="operator" v="Ville de Gatineau"/><tag k="source" v="Ville de Gatineau"/><tag k="name" v="Chalet Martin-Larouche"/><tag k="addr:street" v="Rue Notre-Dame"/><tag k="addr:housenumber" v="984"/><tag k="description" v="Édifice communautaire"/></node><node lat="45.497769" lon="-75.739041"  id="-43"  changeset="false" ><tag k="amenity" v="community_centre"/><tag k="building" v="public"/><tag k="operator" v="Ville de Gatineau"/><tag k="source" v="Ville de Gatineau"/><tag k="name" v="Centre communautaire de Limbour"/><tag k="addr:street" v="Chemin Lebaudy"/><tag k="addr:housenumber" v="288"/></node><node lat="45.49204" lon="-75.647007"  id="-44"  changeset="false" ><tag k="building" v="public"/><tag k="operator" v="Ville de Gatineau"/><tag k="source" v="Ville de Gatineau"/><tag k="name" v="Chalet Saint-René"/><tag k="addr:street" v="Boulevard Saint-René Est"/><tag k="addr:housenumber" v="238"/><tag k="description" v="Édifice communautaire"/></node><node lat="45.506215" lon="-75.606255"  id="-45"  changeset="false" ><tag k="building" v="public"/><tag k="operator" v="Ville de Gatineau"/><tag k="source" v="Ville de Gatineau"/><tag k="name" v="Chalet Raymond-Madore"/><tag k="addr:street" v="Rue des Fleurs"/><tag k="addr:housenumber" v="160"/><tag k="description" v="Édifice communautaire"/></node><node lat="45.488737" lon="-75.602552"  id="-46"  changeset="false" ><tag k="amenity" v="community_centre"/><tag k="building" v="public"/><tag k="operator" v="Ville de Gatineau"/><tag k="source" v="Ville de Gatineau"/><tag k="name" v="Centre communautaire Docteur-Jean-Lorrain"/><tag k="addr:street" v="Boulevard Lorrain"/><tag k="addr:housenumber" v="20"/></node><node lat="45.474263" lon="-75.72563"  id="-47"  changeset="false" ><tag k="building" v="public"/><tag k="operator" v="Ville de Gatineau"/><tag k="source" v="Ville de Gatineau"/><tag k="name" v="Chalet Rivièra #1"/><tag k="addr:street" v="Rue d'Auvergne"/><tag k="addr:housenumber" v="22"/><tag k="description" v="Édifice communautaire"/></node><node lat="45.487122" lon="-75.671159"  id="-48"  changeset="false" ><tag k="amenity" v="community_centre"/><tag k="building" v="public"/><tag k="operator" v="Ville de Gatineau"/><tag k="source" v="Ville de Gatineau"/><tag k="name" v="Centre communautaire Apollo"/><tag k="addr:street" v="Rue Carle"/><tag k="addr:housenumber" v="520"/></node><node lat="45.464454" lon="-75.706921"  id="-49"  changeset="false" ><tag k="building" v="public"/><tag k="operator" v="Ville de Gatineau"/><tag k="source" v="Ville de Gatineau"/><tag k="name" v="Chalet Gilbert-Garneau"/><tag k="addr:street" v="Rue Moreau"/><tag k="addr:housenumber" v="74"/><tag k="description" v="Édifice communautaire"/></node><node lat="45.459512" lon="-75.702238"  id="-50"  changeset="false" ><tag k="amenity" v="community_centre"/><tag k="building" v="public"/><tag k="operator" v="Ville de Gatineau"/><tag k="source" v="Ville de Gatineau"/><tag k="name" v="Pavillon Marengère"/><tag k="addr:street" v="Rue Marengère"/><tag k="addr:housenumber" v="5"/></node><node lat="45.469514" lon="-75.706603"  id="-51"  changeset="false" ><tag k="building" v="public"/><tag k="operator" v="Ville de Gatineau"/><tag k="source" v="Ville de Gatineau"/><tag k="name" v="Chalet Le Coteau"/><tag k="addr:street" v="Rue Louis-Riel"/><tag k="addr:housenumber" v="60"/><tag k="description" v="Édifice communautaire"/></node><node lat="45.383731" lon="-75.807578"  id="-52"  changeset="false" ><tag k="amenity" v="community_centre"/><tag k="building" v="public"/><tag k="operator" v="Ville de Gatineau"/><tag k="source" v="Ville de Gatineau"/><tag k="name" v="Centre communautaire Kenneth-Lloyd"/><tag k="addr:street" v="Rue Arthur-Whelan"/><tag k="addr:housenumber" v="26"/></node><node lat="45.391723" lon="-75.799958"  id="-53"  changeset="false" ><tag k="amenity" v="community_centre"/><tag k="building" v="public"/><tag k="operator" v="Ville de Gatineau"/><tag k="source" v="Ville de Gatineau"/><tag k="name" v="Chalet Lakeview"/><tag k="addr:street" v="Promenade Crescent"/><tag k="addr:housenumber" v="39"/></node><node lat="45.392299" lon="-75.830112"  id="-54"  changeset="false" ><tag k="amenity" v="community_centre"/><tag k="building" v="public"/><tag k="operator" v="Ville de Gatineau"/><tag k="source" v="Ville de Gatineau"/><tag k="name" v="Centre communautaire Belmont"/><tag k="addr:street" v="Rue Belmont"/><tag k="addr:housenumber" v="26"/></node><node lat="45.383825" lon="-75.80397"  id="-55"  changeset="false" ><tag k="amenity" v="community_centre"/><tag k="building" v="public"/><tag k="operator" v="Ville de Gatineau"/><tag k="source" v="Ville de Gatineau"/><tag k="name" v="Centre communautaire André-Touchet"/><tag k="addr:street" v="Chemin Vanier"/><tag k="addr:housenumber" v="57"/></node><node lat="45.386316" lon="-75.841143"  id="-56"  changeset="false" ><tag k="building" v="public"/><tag k="operator" v="Ville de Gatineau"/><tag k="source" v="Ville de Gatineau"/><tag k="name" v="Chalet Wychwood (tennis)"/><tag k="addr:street" v="Rue Lake"/><tag k="addr:housenumber" v="39"/><tag k="description" v="Édifice communautaire"/></node><node lat="45.483759" lon="-75.709198"  id="-57"  changeset="false" ><tag k="building" v="public"/><tag k="operator" v="Ville de Gatineau"/><tag k="source" v="Ville de Gatineau"/><tag k="name" v="Chalet Marcel-Gladu (patinoire)"/><tag k="addr:street" v="Rue de Bourassa"/><tag k="addr:housenumber" v="81"/><tag k="description" v="Édifice communautaire"/></node><node lat="45.455331" lon="-75.738724"  id="-58"  changeset="false" ><tag k="amenity" v="community_centre"/><tag k="building" v="public"/><tag k="operator" v="Ville de Gatineau"/><tag k="source" v="Ville de Gatineau"/><tag k="name" v="Centre communautaire Eugène-Sauvageau"/><tag k="addr:street" v="Rue Mutchmore"/><tag k="addr:housenumber" v="179"/></node><node lat="45.446025" lon="-75.739467"  id="-59"  changeset="false" ><tag k="amenity" v="community_centre"/><tag k="building" v="public"/><tag k="operator" v="Ville de Gatineau"/><tag k="source" v="Ville de Gatineau"/><tag k="name" v="Centre communautaire Laurent-Groulx"/><tag k="addr:street" v="Rue Lévesque"/><tag k="addr:housenumber" v="1"/></node><node lat="45.456548" lon="-75.75552"  id="-60"  changeset="false" ><tag k="building" v="public"/><tag k="operator" v="Ville de Gatineau"/><tag k="source" v="Ville de Gatineau"/><tag k="name" v="Chalet Bisson"/><tag k="addr:street" v="Rue Thérien"/><tag k="addr:housenumber" v="36-A"/><tag k="description" v="Édifice communautaire"/></node><node lat="45.436296" lon="-75.736877"  id="-61"  changeset="false" ><tag k="amenity" v="community_centre"/><tag k="building" v="public"/><tag k="operator" v="Ville de Gatineau"/><tag k="source" v="Ville de Gatineau"/><tag k="name" v="Centre communautaire Larocque"/><tag k="addr:street" v="Rue Fortier"/><tag k="addr:housenumber" v="2"/></node><node lat="45.426058" lon="-75.769051"  id="-62"  changeset="false" ><tag k="building" v="public"/><tag k="operator" v="Ville de Gatineau"/><tag k="source" v="Ville de Gatineau"/><tag k="name" v="Chalet de service des Trembles"/><tag k="addr:street" v="Boulevard des Trembles"/><tag k="addr:housenumber" v="180"/><tag k="description" v="Édifice communautaire"/></node><node lat="45.446652" lon="-75.743112"  id="-63"  changeset="false" ><tag k="amenity" v="community_centre"/><tag k="building" v="public"/><tag k="operator" v="Ville de Gatineau"/><tag k="source" v="Ville de Gatineau"/><tag k="name" v="Centre communautaire Saint-Raymond"/><tag k="addr:street" v="Boulevard Saint-Raymond"/><tag k="addr:housenumber" v="99"/></node><node lat="45.455421" lon="-75.755549"  id="-64"  changeset="false" ><tag k="amenity" v="community_centre"/><tag k="building" v="public"/><tag k="operator" v="Ville de Gatineau"/><tag k="source" v="Ville de Gatineau"/><tag k="name" v="Centre communautaire Bisson"/><tag k="addr:street" v="Rue Thérien"/><tag k="addr:housenumber" v="36-A"/></node><node lat="45.426571" lon="-75.766854"  id="-65"  changeset="false" ><tag k="amenity" v="community_centre"/><tag k="building" v="public"/><tag k="operator" v="Ville de Gatineau"/><tag k="source" v="Ville de Gatineau"/><tag k="name" v="Centre communautaire des Trembles"/><tag k="addr:street" v="Boulevard des Trembles"/><tag k="addr:housenumber" v="150"/></node><node lat="45.473472" lon="-75.723925"  id="-66"  changeset="false" ><tag k="building" v="public"/><tag k="operator" v="Ville de Gatineau"/><tag k="source" v="Ville de Gatineau"/><tag k="name" v="Chalet Rivièra (tennis)"/><tag k="addr:street" v="Rue de Grenoble"/><tag k="addr:housenumber" v="54"/><tag k="description" v="Édifice communautaire"/></node><node lat="45.427212" lon="-75.718727"  id="-67"  changeset="false" ><tag k="amenity" v="community_centre"/><tag k="building" v="public"/><tag k="operator" v="Ville de Gatineau"/><tag k="source" v="Ville de Gatineau"/><tag k="name" v="Centre Jules-Desbiens"/><tag k="addr:street" v="Rue Wright"/><tag k="addr:housenumber" v="109"/></node><node lat="45.417322" lon="-75.839373"  id="-68"  changeset="false" ><tag k="amenity" v="community_centre"/><tag k="building" v="public"/><tag k="operator" v="Ville de Gatineau"/><tag k="source" v="Ville de Gatineau"/><tag k="name" v="Chalet des Jardins-Lavigne"/><tag k="addr:street" v="Avenue du Bois-Franc"/><tag k="addr:housenumber" v="250"/></node><node lat="45.437046" lon="-75.724018"  id="-69"  changeset="false" ><tag k="amenity" v="community_centre"/><tag k="building" v="public"/><tag k="operator" v="Ville de Gatineau"/><tag k="source" v="Ville de Gatineau"/><tag k="name" v="Chalet de L’Île"/><tag k="addr:street" v="Rue Saint-Rédempteur"/><tag k="addr:housenumber" v="305"/></node><node lat="45.428695" lon="-75.7356"  id="-70"  changeset="false" ><tag k="amenity" v="community_centre"/><tag k="building" v="public"/><tag k="operator" v="Ville de Gatineau"/><tag k="source" v="Ville de Gatineau"/><tag k="name" v="Centre communautaire Saint-Jean-Bosco"/><tag k="addr:street" v="Rue Scott"/><tag k="addr:housenumber" v="100"/></node><node lat="45.42716" lon="-75.72677"  id="-71"  changeset="false" ><tag k="amenity" v="community_centre"/><tag k="building" v="public"/><tag k="operator" v="Ville de Gatineau"/><tag k="source" v="Ville de Gatineau"/><tag k="name" v="Centre communautaire Portugais Les Ami Unis"/><tag k="addr:street" v="Rue Hanson"/><tag k="addr:housenumber" v="42"/></node><node lat="45.484277" lon="-75.710749"  id="-72"  changeset="false" ><tag k="amenity" v="community_centre"/><tag k="building" v="public"/><tag k="operator" v="Ville de Gatineau"/><tag k="source" v="Ville de Gatineau"/><tag k="name" v="Centre communautaire Le Baron"/><tag k="addr:street" v="Rue du Barry"/><tag k="addr:housenumber" v="104"/></node><node lat="45.419419" lon="-75.748688"  id="-73"  changeset="false" ><tag k="amenity" v="community_centre"/><tag k="building" v="public"/><tag k="operator" v="Ville de Gatineau"/><tag k="source" v="Ville de Gatineau"/><tag k="name" v="Centre communautaire Tétreau"/><tag k="addr:street" v="Boulevard de Lucerne"/><tag k="addr:housenumber" v="361"/></node><node lat="45.395949" lon="-75.85793"  id="-74"  changeset="false" ><tag k="building" v="public"/><tag k="operator" v="Ville de Gatineau"/><tag k="source" v="Ville de Gatineau"/><tag k="name" v="Pavillon du Port de Plaisance d'Aylmer"/><tag k="addr:street" v="Rue Principale"/><tag k="addr:housenumber" v="1"/><tag k="description" v="Édifice communautaire"/></node><node lat="45.398105" lon="-75.860042"  id="-75"  changeset="false" ><tag k="building" v="public"/><tag k="operator" v="Ville de Gatineau"/><tag k="source" v="Ville de Gatineau"/><tag k="name" v="Chalet de services Plage des Cèdres"/><tag k="addr:street" v="Rue Raoul-Roy"/><tag k="addr:housenumber" v="15"/><tag k="description" v="Édifice communautaire"/></node><node lat="45.399223" lon="-75.859043"  id="-76"  changeset="false" ><tag k="building" v="public"/><tag k="operator" v="Ville de Gatineau"/><tag k="source" v="Ville de Gatineau"/><tag k="name" v="Chalet Des Cèdres (balle #1)"/><tag k="addr:street" v="Rue Raoul-Roy"/><tag k="addr:housenumber" v="15"/><tag k="description" v="Édifice communautaire"/></node><node lat="45.405215" lon="-75.855041"  id="-77"  changeset="false" ><tag k="amenity" v="community_centre"/><tag k="building" v="public"/><tag k="operator" v="Ville de Gatineau"/><tag k="source" v="Ville de Gatineau"/><tag k="name" v="Centre communautaire Front"/><tag k="addr:street" v="Rue Front"/><tag k="addr:housenumber" v="175"/></node><node lat="45.399669" lon="-75.859143"  id="-78"  changeset="false" ><tag k="building" v="public"/><tag k="operator" v="Ville de Gatineau"/><tag k="source" v="Ville de Gatineau"/><tag k="name" v="Chalet Des Cèdres (balle #2)"/><tag k="addr:street" v="Rue Raoul-Roy"/><tag k="addr:housenumber" v="15"/><tag k="description" v="Édifice communautaire"/></node><node lat="45.397247" lon="-75.848602"  id="-79"  changeset="false" ><tag k="building" v="public"/><tag k="operator" v="Ville de Gatineau"/><tag k="source" v="Ville de Gatineau"/><tag k="name" v="Maison communautaire Bruyère"/><tag k="addr:street" v="Rue du Couvent"/><tag k="addr:housenumber" v="57"/><tag k="description" v="Édifice communautaire"/></node><node lat="45.4006" lon="-75.847468"  id="-80"  changeset="false" ><tag k="amenity" v="community_centre"/><tag k="building" v="public"/><tag k="operator" v="Ville de Gatineau"/><tag k="source" v="Ville de Gatineau"/><tag k="name" v="Chalet Chénier"/><tag k="addr:street" v="Rue Jean-Chénier"/><tag k="addr:housenumber" v="515"/></node><node lat="45.479599" lon="-75.648241"  id="-81"  changeset="false" ><tag k="building" v="public"/><tag k="operator" v="Ville de Gatineau"/><tag k="source" v="Ville de Gatineau"/><tag k="name" v="Édifice Jean-René-Monette"/><tag k="addr:street" v="Rue Jean-René-Monette"/><tag k="addr:housenumber" v="89"/><tag k="description" v="Édifice communautaire"/></node><node lat="45.485623" lon="-75.693604"  id="-82"  changeset="false" ><tag k="building" v="public"/><tag k="operator" v="Ville de Gatineau"/><tag k="source" v="Ville de Gatineau"/><tag k="name" v="Chalet l'Oiseau-Bleu"/><tag k="addr:street" v="Avenue de la Drave"/><tag k="addr:housenumber" v="110"/><tag k="description" v="Édifice communautaire"/></node><node lat="45.393687" lon="-75.843306"  id="-83"  changeset="false" ><tag k="amenity" v="community_centre"/><tag k="building" v="public"/><tag k="operator" v="Ville de Gatineau"/><tag k="source" v="Ville de Gatineau"/><tag k="name" v="Centre communautaire Frank-Robinson"/><tag k="addr:street" v="Rue du Patrimoine"/><tag k="addr:housenumber" v="96"/></node><node lat="45.458162" lon="-75.878028"  id="-84"  changeset="false" ><tag k="amenity" v="community_centre"/><tag k="building" v="public"/><tag k="operator" v="Ville de Gatineau"/><tag k="source" v="Ville de Gatineau"/><tag k="name" v="Centre communautaire de Lucerne-Nord"/><tag k="addr:street" v="Rue des Écureuils"/><tag k="addr:housenumber" v="674"/></node><node lat="45.478783" lon="-75.639297"  id="-85"  changeset="false" ><tag k="building" v="public"/><tag k="operator" v="Ville de Gatineau"/><tag k="source" v="Ville de Gatineau"/><tag k="name" v="Maison des Jeunes du Parc Sanscartier"/><tag k="addr:street" v="Rue Sanscartier"/><tag k="addr:housenumber" v="42"/><tag k="description" v="Édifice communautaire"/></node><node lat="45.393861" lon="-75.843864"  id="-86"  changeset="false" ><tag k="amenity" v="community_centre"/><tag k="building" v="public"/><tag k="operator" v="Ville de Gatineau"/><tag k="source" v="Ville de Gatineau"/><tag k="name" v="Centre Aydelu"/><tag k="addr:street" v="Rue du Patrimoine"/><tag k="addr:housenumber" v="94"/></node><node lat="45.478991" lon="-75.64018"  id="-87"  changeset="false" ><tag k="building" v="public"/><tag k="operator" v="Ville de Gatineau"/><tag k="source" v="Ville de Gatineau"/><tag k="name" v="Chalet Sanscartier"/><tag k="addr:street" v="Rue Sanscartier"/><tag k="addr:housenumber" v="5"/><tag k="description" v="Édifice communautaire"/></node><node lat="45.482897" lon="-75.648963"  id="-88"  changeset="false" ><tag k="amenity" v="community_centre"/><tag k="building" v="public"/><tag k="operator" v="Ville de Gatineau"/><tag k="source" v="Ville de Gatineau"/><tag k="name" v="Centre des Aînés de Gatineau"/><tag k="addr:street" v="Rue Notre-Dame"/><tag k="addr:housenumber" v="196"/></node><node lat="45.496729" lon="-75.663322"  id="-89"  changeset="false" ><tag k="building" v="public"/><tag k="operator" v="Ville de Gatineau"/><tag k="source" v="Ville de Gatineau"/><tag k="name" v="Chalet Desnoyers"/><tag k="addr:street" v="Rue Jacques-Poulin"/><tag k="addr:housenumber" v="534"/><tag k="description" v="Édifice communautaire"/></node><node lat="45.465935" lon="-75.746411"  id="-90"  changeset="false" ><tag k="amenity" v="community_centre"/><tag k="building" v="public"/><tag k="operator" v="Ville de Gatineau"/><tag k="source" v="Ville de Gatineau"/><tag k="name" v="Centre communautaire Daniel-Johnson"/><tag k="addr:street" v="Rue Tassé"/><tag k="addr:housenumber" v="54"/></node><node lat="45.393354" lon="-75.844788"  id="-91"  changeset="false" ><tag k="amenity" v="community_centre"/><tag k="building" v="public"/><tag k="operator" v="Ville de Gatineau"/><tag k="source" v="Ville de Gatineau"/><tag k="name" v="Centre communautaire Ernest-Lattion"/><tag k="addr:street" v="Rue Court"/><tag k="addr:housenumber" v="30"/></node><node lat="45.439406" lon="-75.781822"  id="-92"  changeset="false" ><tag k="amenity" v="community_centre"/><tag k="building" v="public"/><tag k="operator" v="Ville de Gatineau"/><tag k="source" v="Ville de Gatineau"/><tag k="name" v="Centre communautaire du Plateau"/><tag k="addr:street" v="Rue de l'Atmosphère"/><tag k="addr:housenumber" v="145"/></node><node lat="45.494261" lon="-75.755369"  id="-93"  changeset="false" ><tag k="building" v="public"/><tag k="operator" v="Ville de Gatineau"/><tag k="source" v="Ville de Gatineau"/><tag k="name" v="Centre Saga Jeunesse"/><tag k="addr:street" v="Rue Saint-Alexandre"/><tag k="addr:housenumber" v="23-A"/><tag k="description" v="Édifice communautaire"/></node><node lat="45.491732" lon="-75.699083"  id="-94"  changeset="false" ><tag k="amenity" v="community_centre"/><tag k="building" v="public"/><tag k="operator" v="Ville de Gatineau"/><tag k="source" v="Ville de Gatineau"/><tag k="name" v="Pavillon Ernest-Gaboury"/><tag k="addr:street" v="Rue de Morency"/><tag k="addr:housenumber" v="100"/></node><node lat="45.494359" lon="-75.67034"  id="-95"  changeset="false" ><tag k="building" v="public"/><tag k="operator" v="Ville de Gatineau"/><tag k="source" v="Ville de Gatineau"/><tag k="name" v="Chalet Pierre-Laporte (tennis)"/><tag k="addr:street" v="Rue Antoine"/><tag k="addr:housenumber" v="489"/><tag k="description" v="Édifice communautaire"/></node><node lat="45.443342" lon="-75.715581"  id="-96"  changeset="false" ><tag k="amenity" v="community_centre"/><tag k="building" v="public"/><tag k="operator" v="Ville de Gatineau"/><tag k="source" v="Ville de Gatineau"/><tag k="name" v="Centre communautaire Desjardins"/><tag k="addr:street" v="Rue Goyette"/><tag k="addr:housenumber" v="1"/></node><node lat="45.487227" lon="-75.66863"  id="-97"  changeset="false" ><tag k="amenity" v="community_centre"/><tag k="building" v="public"/><tag k="operator" v="Ville de Gatineau"/><tag k="source" v="Ville de Gatineau"/><tag k="name" v="Centre communautaire Saint-Richard"/><tag k="addr:street" v="Rue Migneault"/><tag k="addr:housenumber" v="315"/></node><node lat="45.39179" lon="-75.844803"  id="-98"  changeset="false" ><tag k="building" v="public"/><tag k="operator" v="Ville de Gatineau"/><tag k="source" v="Ville de Gatineau"/><tag k="name" v="Chalet Aydelu (balle)"/><tag k="addr:street" v="Rue Court"/><tag k="addr:housenumber" v="20"/><tag k="description" v="Édifice communautaire"/></node><node lat="45.392502" lon="-75.843845"  id="-99"  changeset="false" ><tag k="building" v="public"/><tag k="operator" v="Ville de Gatineau"/><tag k="source" v="Ville de Gatineau"/><tag k="name" v="Centre Jeunesse d'Aylmer"/><tag k="addr:street" v="Rue du Patrimoine"/><tag k="addr:housenumber" v="92"/><tag k="description" v="Édifice communautaire"/></node></osm>