<?xml version="1.0" encoding="UTF-8"?><osm version="0.6" generator="https://github.com/Rub21/geojson2osm"><node lat="45.438929" lon="-75.743874"  id="-1"  changeset="false" ><tag k="amenity" v="kindergarten"/><tag k="name" v="Garderie Au Clair de Lune"/><tag k="source" v="Ville de Gatineau"/><tag k="addr:street" v="Boulevard Moussette"/><tag k="addr:housenumber" v="65"/></node><node lat="45.436598" lon="-75.731588"  id="-2"  changeset="false" ><tag k="amenity" v="kindergarten"/><tag k="name" v="CPE Aux Nids des Petits"/><tag k="source" v="Ville de Gatineau"/><tag k="addr:street" v="Rue Lois"/><tag k="addr:housenumber" v="138"/></node><node lat="45.448436" lon="-75.736594"  id="-3"  changeset="false" ><tag k="amenity" v="kindergarten"/><tag k="name" v="CPE Au Pays des Anges"/><tag k="source" v="Ville de Gatineau"/><tag k="addr:street" v="Rue Roy"/><tag k="addr:housenumber" v="11"/></node><node lat="45.450029" lon="-75.74489"  id="-4"  changeset="false" ><tag k="amenity" v="kindergarten"/><tag k="name" v="Garderie Petit Jacob"/><tag k="source" v="Ville de Gatineau"/><tag k="addr:street" v="Rue Isabelle"/><tag k="addr:housenumber" v="38"/></node><node lat="45.447453" lon="-75.737802"  id="-5"  changeset="false" ><tag k="amenity" v="kindergarten"/><tag k="name" v="CPE Chez Cornemuse"/><tag k="source" v="Ville de Gatineau"/><tag k="addr:street" v="Boulevard Saint-Raymond"/><tag k="addr:housenumber" v="46"/></node><node lat="45.442856" lon="-75.734385"  id="-6"  changeset="false" ><tag k="amenity" v="kindergarten"/><tag k="name" v="Garderie Excelsiori Daycare"/><tag k="source" v="Ville de Gatineau"/><tag k="addr:street" v="Rue Bourque"/><tag k="addr:housenumber" v="23"/></node><node lat="45.447455" lon="-75.737776"  id="-7"  changeset="false" ><tag k="amenity" v="kindergarten"/><tag k="name" v="CPE Chez Cornemuse (Vision-avenir)"/><tag k="source" v="Ville de Gatineau"/><tag k="addr:street" v="Boulevard Saint-Raymond"/><tag k="addr:housenumber" v="48"/></node><node lat="45.440098" lon="-75.734439"  id="-8"  changeset="false" ><tag k="amenity" v="kindergarten"/><tag k="name" v="Garderie éducative Le petit Caneton"/><tag k="source" v="Ville de Gatineau"/><tag k="addr:street" v="Boulevard Montclair"/><tag k="addr:housenumber" v="39"/></node><node lat="45.450364" lon="-75.744949"  id="-9"  changeset="false" ><tag k="amenity" v="kindergarten"/><tag k="name" v="Garderie Petit Jacob2"/><tag k="source" v="Ville de Gatineau"/><tag k="addr:street" v="Rue Isabelle"/><tag k="addr:housenumber" v="42"/></node><node lat="45.4351" lon="-75.733561"  id="-10"  changeset="false" ><tag k="amenity" v="kindergarten"/><tag k="name" v="CPE des Premiers pas (Taschereau)"/><tag k="source" v="Ville de Gatineau"/><tag k="addr:street" v="Rue Taschereau"/><tag k="addr:housenumber" v="4"/></node><node lat="45.432636" lon="-75.722127"  id="-11"  changeset="false" ><tag k="amenity" v="kindergarten"/><tag k="name" v="CPE L'Île des Enfants"/><tag k="source" v="Ville de Gatineau"/><tag k="addr:street" v="Boulevard des Allumettières"/><tag k="addr:housenumber" v="296"/></node><node lat="45.433009" lon="-75.741187"  id="-12"  changeset="false" ><tag k="amenity" v="kindergarten"/><tag k="name" v="CPE Aux Trois Pommes (Labelle)"/><tag k="source" v="Ville de Gatineau"/><tag k="addr:street" v="Rue Labelle"/><tag k="addr:housenumber" v="30"/></node><node lat="45.422421" lon="-75.74737"  id="-13"  changeset="false" ><tag k="amenity" v="kindergarten"/><tag k="name" v="Garderie Maison d'enfants Montessori"/><tag k="source" v="Ville de Gatineau"/><tag k="addr:street" v="Rue Saint-François"/><tag k="addr:housenumber" v="14"/></node><node lat="45.426081" lon="-75.733747"  id="-14"  changeset="false" ><tag k="amenity" v="kindergarten"/><tag k="name" v="Garderie éducative Les petites Coccinelles"/><tag k="source" v="Ville de Gatineau"/><tag k="addr:street" v="Boulevard Saint-Joseph"/><tag k="addr:housenumber" v="39"/></node><node lat="45.425725" lon="-75.721792"  id="-15"  changeset="false" ><tag k="amenity" v="kindergarten"/><tag k="name" v="CPE Les Terrasses"/><tag k="source" v="Ville de Gatineau"/><tag k="addr:street" v="Rue Wellington"/><tag k="addr:housenumber" v="10"/></node><node lat="45.421849" lon="-75.747158"  id="-16"  changeset="false" ><tag k="amenity" v="kindergarten"/><tag k="name" v="Garderie la boite à surprises"/><tag k="source" v="Ville de Gatineau"/><tag k="addr:street" v="Rue Saint-François"/><tag k="addr:housenumber" v="2"/></node><node lat="45.422099" lon="-75.740588"  id="-17"  changeset="false" ><tag k="amenity" v="kindergarten"/><tag k="name" v="CPE L'Univers des Petits"/><tag k="source" v="Ville de Gatineau"/><tag k="addr:street" v="Boulevard Alexandre-Taché"/><tag k="addr:housenumber" v="325"/></node><node lat="45.446921" lon="-75.746419"  id="-18"  changeset="false" ><tag k="amenity" v="kindergarten"/><tag k="name" v="Garderie le jardin d'Amélie"/><tag k="source" v="Ville de Gatineau"/><tag k="addr:street" v="Boulevard Saint-Raymond"/><tag k="addr:housenumber" v="136"/></node><node lat="45.44665" lon="-75.750447"  id="-19"  changeset="false" ><tag k="amenity" v="kindergarten"/><tag k="name" v="Garderie Les petits Sourires"/><tag k="source" v="Ville de Gatineau"/><tag k="addr:street" v="Boulevard Saint-Raymond"/><tag k="addr:housenumber" v="162"/></node><node lat="45.445912" lon="-75.747208"  id="-20"  changeset="false" ><tag k="amenity" v="kindergarten"/><tag k="name" v="CPE La Jeune Ronde"/><tag k="source" v="Ville de Gatineau"/><tag k="addr:street" v="Boulevard Lionel-Émond"/><tag k="addr:housenumber" v="140"/></node><node lat="45.428052" lon="-75.735365"  id="-21"  changeset="false" ><tag k="amenity" v="kindergarten"/><tag k="name" v="Garderie Montessori Mavie"/><tag k="source" v="Ville de Gatineau"/><tag k="addr:street" v="Rue Booth"/><tag k="addr:housenumber" v="25"/></node><node lat="45.503095" lon="-75.669672"  id="-22"  changeset="false" ><tag k="amenity" v="kindergarten"/><tag k="name" v="CPE Alakazou (Nobert)"/><tag k="source" v="Ville de Gatineau"/><tag k="addr:street" v="Rue Nobert"/><tag k="addr:housenumber" v="425"/></node><node lat="45.471666" lon="-75.762455"  id="-23"  changeset="false" ><tag k="amenity" v="kindergarten"/><tag k="name" v="CPE des Hautes-Plaines"/><tag k="source" v="Ville de Gatineau"/><tag k="addr:street" v="Boulevard des Hautes-Plaines"/><tag k="addr:housenumber" v="475"/></node><node lat="45.492906" lon="-75.67528"  id="-24"  changeset="false" ><tag k="amenity" v="kindergarten"/><tag k="name" v="Garderie Petits Trésors"/><tag k="source" v="Ville de Gatineau"/><tag k="addr:street" v="(B) Montée Paiement"/><tag k="addr:housenumber" v="456"/></node><node lat="45.476454" lon="-75.729573"  id="-25"  changeset="false" ><tag k="amenity" v="kindergarten"/><tag k="name" v="Garderie Pré maternelle Touraine"/><tag k="source" v="Ville de Gatineau"/><tag k="addr:street" v="Avenue Gatineau"/><tag k="addr:housenumber" v="13"/></node><node lat="45.48138" lon="-75.722206"  id="-26"  changeset="false" ><tag k="amenity" v="kindergarten"/><tag k="name" v="CPE Le Tamanoir"/><tag k="source" v="Ville de Gatineau"/><tag k="addr:street" v="Avenue Gatineau"/><tag k="addr:housenumber" v="89"/></node><node lat="45.475464" lon="-75.709454"  id="-27"  changeset="false" ><tag k="amenity" v="kindergarten"/><tag k="name" v="CPE Bébéjou (Sillery)"/><tag k="source" v="Ville de Gatineau"/><tag k="addr:street" v="Rue de Sillery"/><tag k="addr:housenumber" v="35"/></node><node lat="45.48422" lon="-75.718776"  id="-28"  changeset="false" ><tag k="amenity" v="kindergarten"/><tag k="name" v="Garderie Maison d'enfants Montessori Gatineau"/><tag k="source" v="Ville de Gatineau"/><tag k="addr:street" v="Avenue Gatineau"/><tag k="addr:housenumber" v="123"/></node><node lat="45.486895" lon="-75.705361"  id="-29"  changeset="false" ><tag k="amenity" v="kindergarten"/><tag k="name" v="CPE La Gatinerie"/><tag k="source" v="Ville de Gatineau"/><tag k="addr:street" v="Rue de l'Acadie"/><tag k="addr:housenumber" v="32"/></node><node lat="45.494862" lon="-75.689844"  id="-30"  changeset="false" ><tag k="amenity" v="kindergarten"/><tag k="name" v="CPE La Jonglerie (Hôpital)"/><tag k="source" v="Ville de Gatineau"/><tag k="addr:street" v="Boulevard de l'Hôpital"/><tag k="addr:housenumber" v="551"/></node><node lat="45.545728" lon="-75.417561"  id="-31"  changeset="false" ><tag k="amenity" v="kindergarten"/><tag k="name" v="CPE Les Petits Fripons (des Servantes)"/><tag k="source" v="Ville de Gatineau"/><tag k="addr:street" v="Rue des Servantes"/><tag k="addr:housenumber" v="42"/></node><node lat="45.525303" lon="-75.488542"  id="-32"  changeset="false" ><tag k="amenity" v="kindergarten"/><tag k="name" v="CPE Trois Petits Points (Zamizou)"/><tag k="source" v="Ville de Gatineau"/><tag k="addr:street" v="Rue Yvon-Pichette"/><tag k="addr:housenumber" v="1035"/></node><node lat="45.569571" lon="-75.424419"  id="-33"  changeset="false" ><tag k="amenity" v="kindergarten"/><tag k="name" v="Garderie Le Royaume du petit"/><tag k="source" v="Ville de Gatineau"/><tag k="addr:street" v="Rue Georges"/><tag k="addr:housenumber" v="916"/></node><node lat="45.55793" lon="-75.440048"  id="-34"  changeset="false" ><tag k="amenity" v="kindergarten"/><tag k="name" v="CPE Les Petits Fripons (des Bouleaux)"/><tag k="source" v="Ville de Gatineau"/><tag k="addr:street" v="Rue des Bouleaux"/><tag k="addr:housenumber" v="375"/></node><node lat="45.587959" lon="-75.412048"  id="-35"  changeset="false" ><tag k="amenity" v="kindergarten"/><tag k="name" v="CPE La Grande Envolée (MacLaren)"/><tag k="source" v="Ville de Gatineau"/><tag k="addr:street" v="Rue Maclaren Est"/><tag k="addr:housenumber" v="154"/></node><node lat="45.545501" lon="-75.412601"  id="-36"  changeset="false" ><tag k="amenity" v="kindergarten"/><tag k="name" v="CPE La Grande Envolée (Buckingham)"/><tag k="source" v="Ville de Gatineau"/><tag k="addr:street" v="Chemin de Montréal Est"/><tag k="addr:housenumber" v="75"/></node><node lat="45.536053" lon="-75.483132"  id="-37"  changeset="false" ><tag k="amenity" v="kindergarten"/><tag k="name" v="CPE Trois Petits Points (Neuville)"/><tag k="source" v="Ville de Gatineau"/><tag k="addr:street" v="Rue de Neuville"/><tag k="addr:housenumber" v="1105"/></node><node lat="45.58472" lon="-75.415038"  id="-38"  changeset="false" ><tag k="amenity" v="kindergarten"/><tag k="name" v="CPE L'Oiseau Bleu"/><tag k="source" v="Ville de Gatineau"/><tag k="addr:street" v="Avenue de Buckingham"/><tag k="addr:housenumber" v="574"/></node><node lat="45.590755" lon="-75.410177"  id="-39"  changeset="false" ><tag k="amenity" v="kindergarten"/><tag k="name" v="Garderie sous l'océan inc"/><tag k="source" v="Ville de Gatineau"/><tag k="addr:street" v="rue Joseph"/><tag k="addr:housenumber" v="189"/></node><node lat="45.482028" lon="-75.684438"  id="-40"  changeset="false" ><tag k="amenity" v="kindergarten"/><tag k="name" v="CPE Petit Felix"/><tag k="source" v="Ville de Gatineau"/><tag k="addr:street" v="Boulevard de la Gappe"/><tag k="addr:housenumber" v="812"/></node><node lat="45.474652" lon="-75.686562"  id="-41"  changeset="false" ><tag k="amenity" v="kindergarten"/><tag k="name" v="CPE Le Bonjour (Smith)"/><tag k="source" v="Ville de Gatineau"/><tag k="addr:street" v="Rue Smith"/><tag k="addr:housenumber" v="65"/></node><node lat="45.492306" lon="-75.645265"  id="-42"  changeset="false" ><tag k="amenity" v="kindergarten"/><tag k="name" v="CPE L'Arche des Petits (Vauquelin)"/><tag k="source" v="Ville de Gatineau"/><tag k="addr:street" v="Rue de Vauquelin"/><tag k="addr:housenumber" v="24"/></node><node lat="45.480599" lon="-75.69471"  id="-43"  changeset="false" ><tag k="amenity" v="kindergarten"/><tag k="name" v="CPE Coup de Pouce inc"/><tag k="source" v="Ville de Gatineau"/><tag k="addr:street" v="Rue Nelligan"/><tag k="addr:housenumber" v="110"/></node><node lat="45.484618" lon="-75.648509"  id="-44"  changeset="false" ><tag k="amenity" v="kindergarten"/><tag k="name" v="Garderie Nos p'tits coeurs"/><tag k="source" v="Ville de Gatineau"/><tag k="addr:street" v="Rue Broadway Est"/><tag k="addr:housenumber" v="97"/></node><node lat="45.475159" lon="-75.683451"  id="-45"  changeset="false" ><tag k="amenity" v="kindergarten"/><tag k="name" v="CPE Bébéjou (Savane)"/><tag k="source" v="Ville de Gatineau"/><tag k="addr:street" v="Chemin de la Savane"/><tag k="addr:housenumber" v="179"/></node><node lat="45.479607" lon="-75.64748"  id="-46"  changeset="false" ><tag k="amenity" v="kindergarten"/><tag k="name" v="Garderie Académie Trivium"/><tag k="source" v="Ville de Gatineau"/><tag k="addr:street" v="Rue Jean-René-Monette"/><tag k="addr:housenumber" v="88"/></node><node lat="45.475151" lon="-75.683979"  id="-47"  changeset="false" ><tag k="amenity" v="kindergarten"/><tag k="name" v="CPE Les Feux Follets"/><tag k="source" v="Ville de Gatineau"/><tag k="addr:street" v="Chemin de la Savane"/><tag k="addr:housenumber" v="175"/></node><node lat="45.495302" lon="-75.743633"  id="-48"  changeset="false" ><tag k="amenity" v="kindergarten"/><tag k="name" v="CPE La Planète des Enfants"/><tag k="source" v="Ville de Gatineau"/><tag k="addr:street" v="Chemin Lebaudy"/><tag k="addr:housenumber" v="171"/></node><node lat="45.499625" lon="-75.750391"  id="-49"  changeset="false" ><tag k="amenity" v="kindergarten"/><tag k="name" v="CPE de L'Érablière"/><tag k="source" v="Ville de Gatineau"/><tag k="addr:street" v="Chemin des Érables"/><tag k="addr:housenumber" v="45"/></node><node lat="45.487609" lon="-75.744432"  id="-50"  changeset="false" ><tag k="amenity" v="kindergarten"/><tag k="name" v="Garderie des Jardins"/><tag k="source" v="Ville de Gatineau"/><tag k="addr:street" v="Rue Saint-Louis"/><tag k="addr:housenumber" v="2299"/></node><node lat="45.474781" lon="-75.728944"  id="-51"  changeset="false" ><tag k="amenity" v="kindergarten"/><tag k="name" v="Garderie École Montessori de Gatineau"/><tag k="source" v="Ville de Gatineau"/><tag k="addr:street" v="Rue Saint-Louis"/><tag k="addr:housenumber" v="1915"/></node><node lat="45.499258" lon="-75.729118"  id="-52"  changeset="false" ><tag k="amenity" v="kindergarten"/><tag k="name" v="Garderie éducative Enfantastique"/><tag k="source" v="Ville de Gatineau"/><tag k="addr:street" v="Rue de la Plaine"/><tag k="addr:housenumber" v="226"/></node><node lat="45.506718" lon="-75.762293"  id="-53"  changeset="false" ><tag k="amenity" v="kindergarten"/><tag k="name" v="Garderie Le Jardin des Copains"/><tag k="source" v="Ville de Gatineau"/><tag k="addr:street" v="Rue Saint-Louis"/><tag k="addr:housenumber" v="2947"/></node><node lat="45.501635" lon="-75.63708"  id="-54"  changeset="false" ><tag k="amenity" v="kindergarten"/><tag k="name" v="CPE Les Enfants d'abord"/><tag k="source" v="Ville de Gatineau"/><tag k="addr:street" v="Rue de Malartic"/><tag k="addr:housenumber" v="291"/></node><node lat="45.482241" lon="-75.650482"  id="-55"  changeset="false" ><tag k="amenity" v="kindergarten"/><tag k="name" v="CPE La Ciboulette"/><tag k="source" v="Ville de Gatineau"/><tag k="addr:street" v="Rue Vianney"/><tag k="addr:housenumber" v="155"/></node><node lat="45.469473" lon="-75.736266"  id="-56"  changeset="false" ><tag k="amenity" v="kindergarten"/><tag k="name" v="Garderie la petite école vision Gatineau"/><tag k="source" v="Ville de Gatineau"/><tag k="addr:street" v="Boulevard Saint-Joseph"/><tag k="addr:housenumber" v="1040"/></node><node lat="45.503909" lon="-75.697055"  id="-57"  changeset="false" ><tag k="amenity" v="kindergarten"/><tag k="name" v="Garderie de la Mignonette"/><tag k="source" v="Ville de Gatineau"/><tag k="addr:street" v="Boulevard Gréber"/><tag k="addr:housenumber" v="1054"/></node><node lat="45.503889" lon="-75.697246"  id="-58"  changeset="false" ><tag k="amenity" v="kindergarten"/><tag k="name" v="Garderie de Laverendrye"/><tag k="source" v="Ville de Gatineau"/><tag k="addr:street" v="Boulevard Gréber"/><tag k="addr:housenumber" v="1050"/></node><node lat="45.485216" lon="-75.639551"  id="-59"  changeset="false" ><tag k="amenity" v="kindergarten"/><tag k="name" v="Garderie Planète kids(Gatineau)"/><tag k="source" v="Ville de Gatineau"/><tag k="addr:street" v="Boulevard Maloney Est"/><tag k="addr:housenumber" v="405"/></node><node lat="45.495249" lon="-75.669231"  id="-60"  changeset="false" ><tag k="amenity" v="kindergarten"/><tag k="name" v="CPE Alakazou (Joseph-Demontigny)"/><tag k="source" v="Ville de Gatineau"/><tag k="addr:street" v="Rue Joseph-Demontigny"/><tag k="addr:housenumber" v="454"/></node><node lat="45.503425" lon="-75.651207"  id="-61"  changeset="false" ><tag k="amenity" v="kindergarten"/><tag k="name" v="CPE Marie-Soleil"/><tag k="source" v="Ville de Gatineau"/><tag k="addr:street" v="Rue P.-Labine"/><tag k="addr:housenumber" v="185"/></node><node lat="45.576035" lon="-75.398472"  id="-62"  changeset="false" ><tag k="amenity" v="kindergarten"/><tag k="name" v="CPE Les petits Fripons (Lépine)"/><tag k="source" v="Ville de Gatineau"/><tag k="addr:street" v="Avenue Lépine"/><tag k="addr:housenumber" v="195"/></node><node lat="45.483364" lon="-75.611297"  id="-63"  changeset="false" ><tag k="amenity" v="kindergarten"/><tag k="name" v="Garderie éducative Le petit Caneton 2"/><tag k="source" v="Ville de Gatineau"/><tag k="addr:street" v="Boulevard Maloney Est"/><tag k="addr:housenumber" v="814"/></node><node lat="45.460959" lon="-75.719548"  id="-64"  changeset="false" ><tag k="amenity" v="kindergarten"/><tag k="name" v="CPE La Nacelle"/><tag k="source" v="Ville de Gatineau"/><tag k="addr:street" v="Rue Saint-Louis"/><tag k="addr:housenumber" v="1579"/></node><node lat="45.498686" lon="-75.581314"  id="-65"  changeset="false" ><tag k="amenity" v="kindergarten"/><tag k="name" v="CPE La Jonglerie (Cheval-Blanc)"/><tag k="source" v="Ville de Gatineau"/><tag k="addr:street" v="Avenue du Cheval-Blanc"/><tag k="addr:housenumber" v="479"/></node><node lat="45.522211" lon="-75.693735"  id="-66"  changeset="false" ><tag k="amenity" v="kindergarten"/><tag k="name" v="Garderie Ami calin garderie"/><tag k="source" v="Ville de Gatineau"/><tag k="addr:street" v="(B) Rue de Lotbinière"/><tag k="addr:housenumber" v="36"/></node><node lat="45.52226" lon="-75.693841"  id="-67"  changeset="false" ><tag k="amenity" v="kindergarten"/><tag k="name" v="Garderie Centre d'Éveil devenir Grand"/><tag k="source" v="Ville de Gatineau"/><tag k="addr:street" v="Rue de Lotbinière"/><tag k="addr:housenumber" v="36"/></node><node lat="45.462578" lon="-75.746161"  id="-68"  changeset="false" ><tag k="amenity" v="kindergarten"/><tag k="name" v="Garderie éducative les ptits coeurs de Mont-Bleu"/><tag k="source" v="Ville de Gatineau"/><tag k="addr:street" v="Boulevard du Mont-Bleu"/><tag k="addr:housenumber" v="34"/></node><node lat="45.461179" lon="-75.750757"  id="-69"  changeset="false" ><tag k="amenity" v="kindergarten"/><tag k="name" v="Garderie Au Jardin des Petits Amis"/><tag k="source" v="Ville de Gatineau"/><tag k="addr:street" v="Rue du Père-Béland"/><tag k="addr:housenumber" v="2"/></node><node lat="45.487222" lon="-75.743763"  id="-70"  changeset="false" ><tag k="amenity" v="kindergarten"/><tag k="name" v="Garderie préscolaire l'excellence"/><tag k="source" v="Ville de Gatineau"/><tag k="addr:street" v="Rue Saint-Louis"/><tag k="addr:housenumber" v="2291"/></node><node lat="45.504585" lon="-75.590923"  id="-71"  changeset="false" ><tag k="amenity" v="kindergarten"/><tag k="name" v="CPE Petits Pieds"/><tag k="source" v="Ville de Gatineau"/><tag k="addr:street" v="Boulevard Saint-René Est"/><tag k="addr:housenumber" v="1174"/></node><node lat="45.458078" lon="-75.697445"  id="-72"  changeset="false" ><tag k="amenity" v="kindergarten"/><tag k="name" v="CPE Le Bonjour (de la Baie)"/><tag k="source" v="Ville de Gatineau"/><tag k="addr:street" v="Rue de la Baie"/><tag k="addr:housenumber" v="33"/></node><node lat="45.495235" lon="-75.607276"  id="-73"  changeset="false" ><tag k="amenity" v="kindergarten"/><tag k="name" v="Garderie éducative les ptits coeurs de lorrain"/><tag k="source" v="Ville de Gatineau"/><tag k="addr:street" v="Boulevard Lorrain"/><tag k="addr:housenumber" v="106"/></node><node lat="45.460861" lon="-75.697066"  id="-74"  changeset="false" ><tag k="amenity" v="kindergarten"/><tag k="name" v="CPE L'Arche des Petits (Baie)"/><tag k="source" v="Ville de Gatineau"/><tag k="addr:street" v="Rue de la Baie"/><tag k="addr:housenumber" v="96"/></node><node lat="45.492325" lon="-75.597562"  id="-75"  changeset="false" ><tag k="amenity" v="kindergarten"/><tag k="name" v="Garderie Centre éducatif à pas de géant"/><tag k="source" v="Ville de Gatineau"/><tag k="addr:street" v="Rue Chiasson"/><tag k="addr:housenumber" v="10"/></node><node lat="45.386833" lon="-75.831136"  id="-76"  changeset="false" ><tag k="amenity" v="kindergarten"/><tag k="name" v="CPE Le Châtelet"/><tag k="source" v="Ville de Gatineau"/><tag k="addr:street" v="Boulevard de Lucerne"/><tag k="addr:housenumber" v="8"/></node><node lat="45.407769" lon="-75.83825"  id="-77"  changeset="false" ><tag k="amenity" v="kindergarten"/><tag k="name" v="Garderie la petite école de mon quartier"/><tag k="source" v="Ville de Gatineau"/><tag k="addr:street" v="Boulevard Wilfrid-Lavigne"/><tag k="addr:housenumber" v="584"/></node><node lat="45.404365" lon="-75.807584"  id="-78"  changeset="false" ><tag k="amenity" v="kindergarten"/><tag k="name" v="Garderie éducative Chez Danielle"/><tag k="source" v="Ville de Gatineau"/><tag k="addr:street" v="Chemin Vanier"/><tag k="addr:housenumber" v="296"/></node><node lat="45.38585" lon="-75.80549"  id="-79"  changeset="false" ><tag k="amenity" v="kindergarten"/><tag k="name" v="Garderie Aurora"/><tag k="source" v="Ville de Gatineau"/><tag k="addr:street" v="Chemin Vanier"/><tag k="addr:housenumber" v="82"/></node><node lat="45.419312" lon="-75.850511"  id="-80"  changeset="false" ><tag k="amenity" v="kindergarten"/><tag k="name" v="Garderie mon petit cosmos 2"/><tag k="source" v="Ville de Gatineau"/><tag k="addr:street" v="Rue Maurice-Duplessis"/><tag k="addr:housenumber" v="260"/></node><node lat="45.392758" lon="-75.831027"  id="-81"  changeset="false" ><tag k="amenity" v="kindergarten"/><tag k="name" v="CPE Grande Rivière"/><tag k="source" v="Ville de Gatineau"/><tag k="addr:street" v="Rue Elizabeth"/><tag k="addr:housenumber" v="44"/></node><node lat="45.435486" lon="-75.734987"  id="-82"  changeset="false" ><tag k="amenity" v="kindergarten"/><tag k="name" v="CPE Aux Trois Pommes (Berri)"/><tag k="source" v="Ville de Gatineau"/><tag k="addr:street" v="Rue Berri"/><tag k="addr:housenumber" v="122"/></node><node lat="45.45483" lon="-75.751586"  id="-83"  changeset="false" ><tag k="amenity" v="kindergarten"/><tag k="name" v="Garderie Imagine 2"/><tag k="source" v="Ville de Gatineau"/><tag k="addr:street" v="Rue Bédard"/><tag k="addr:housenumber" v="104"/></node><node lat="45.427027" lon="-75.711386"  id="-84"  changeset="false" ><tag k="amenity" v="kindergarten"/><tag k="name" v="CPE Le Baluchon (Jos-Montferrand)"/><tag k="source" v="Ville de Gatineau"/><tag k="addr:street" v="Rue de l'Hôtel-de-Ville"/><tag k="addr:housenumber" v="170"/></node><node lat="45.442968" lon="-75.745114"  id="-85"  changeset="false" ><tag k="amenity" v="kindergarten"/><tag k="name" v="Garderie Les Racines de vie Montessori"/><tag k="source" v="Ville de Gatineau"/><tag k="addr:street" v="Rue Gamelin"/><tag k="addr:housenumber" v="225"/></node><node lat="45.430995" lon="-75.72023"  id="-86"  changeset="false" ><tag k="amenity" v="kindergarten"/><tag k="name" v="Garderie la crèche et plus 2"/><tag k="source" v="Ville de Gatineau"/><tag k="addr:street" v="Rue Eddy"/><tag k="addr:housenumber" v="172"/></node><node lat="45.431327" lon="-75.713959"  id="-87"  changeset="false" ><tag k="amenity" v="kindergarten"/><tag k="name" v="Garderie Imagine"/><tag k="source" v="Ville de Gatineau"/><tag k="addr:street" v="Rue Dollard-Des Ormeaux"/><tag k="addr:housenumber" v="89"/></node><node lat="45.436306" lon="-75.77544"  id="-88"  changeset="false" ><tag k="amenity" v="kindergarten"/><tag k="name" v="Garderie éducative Enfantastique du Plateau"/><tag k="source" v="Ville de Gatineau"/><tag k="addr:street" v="Boulevard du Plateau"/><tag k="addr:housenumber" v="118"/></node><node lat="45.427063" lon="-75.76268"  id="-89"  changeset="false" ><tag k="amenity" v="kindergarten"/><tag k="name" v="Garderie Planète Kids (Hull)"/><tag k="source" v="Ville de Gatineau"/><tag k="addr:street" v="Boulevard Saint-Raymond"/><tag k="addr:housenumber" v="260"/></node><node lat="45.42551" lon="-75.762043"  id="-90"  changeset="false" ><tag k="amenity" v="kindergarten"/><tag k="name" v="Garderie Unik"/><tag k="source" v="Ville de Gatineau"/><tag k="addr:street" v="Boulevard Saint-Raymond"/><tag k="addr:housenumber" v="300"/></node><node lat="45.435409" lon="-75.794027"  id="-91"  changeset="false" ><tag k="amenity" v="kindergarten"/><tag k="name" v="Garderie Centre Éducatif au Royaume des Enfants"/><tag k="source" v="Ville de Gatineau"/><tag k="addr:street" v="Rue du Tropique"/><tag k="addr:housenumber" v="86"/></node><node lat="45.443391" lon="-75.801047"  id="-92"  changeset="false" ><tag k="amenity" v="kindergarten"/><tag k="name" v="Garderie la douceur de l'enfance"/><tag k="source" v="Ville de Gatineau"/><tag k="addr:street" v="Chemin Pink, bureau 103"/><tag k="addr:housenumber" v="1910"/></node><node lat="45.437232" lon="-75.803604"  id="-93"  changeset="false" ><tag k="amenity" v="kindergarten"/><tag k="name" v="Garderie éducative Parfaitement plus Grand"/><tag k="source" v="Ville de Gatineau"/><tag k="addr:street" v="(A) Rue du Prado"/><tag k="addr:housenumber" v="201"/></node><node lat="45.438816" lon="-75.783867"  id="-94"  changeset="false" ><tag k="amenity" v="kindergarten"/><tag k="name" v="CPE des Premiers Pas (Atmosphère)"/><tag k="source" v="Ville de Gatineau"/><tag k="addr:street" v="Rue de l'Atmosphère"/><tag k="addr:housenumber" v="165"/></node><node lat="45.42608" lon="-75.715596"  id="-95"  changeset="false" ><tag k="amenity" v="kindergarten"/><tag k="name" v="CPE du Portage"/><tag k="source" v="Ville de Gatineau"/><tag k="addr:street" v="Promenade du Portage"/><tag k="addr:housenumber" v="150"/></node><node lat="45.410408" lon="-75.808575"  id="-96"  changeset="false" ><tag k="amenity" v="kindergarten"/><tag k="name" v="Garderie Les petits Shakits"/><tag k="source" v="Ville de Gatineau"/><tag k="addr:street" v="Chemin Vanier"/><tag k="addr:housenumber" v="350"/></node><node lat="45.456444" lon="-75.7386"  id="-97"  changeset="false" ><tag k="amenity" v="kindergarten"/><tag k="name" v="Garderie Centre éducatif La Passerelle"/><tag k="source" v="Ville de Gatineau"/><tag k="addr:street" v="rue Mutchmore"/><tag k="addr:housenumber" v="184"/></node><node lat="45.425354" lon="-75.762026"  id="-98"  changeset="false" ><tag k="amenity" v="kindergarten"/><tag k="name" v="Garderie Unik 2"/><tag k="source" v="Ville de Gatineau"/><tag k="addr:street" v="Boulevard Saint-Raymond"/><tag k="addr:housenumber" v="300"/></node><node lat="45.456376" lon="-75.749747"  id="-99"  changeset="false" ><tag k="amenity" v="kindergarten"/><tag k="name" v="Garderie Futur Einstein"/><tag k="source" v="Ville de Gatineau"/><tag k="addr:street" v="Boulevard Riel"/><tag k="addr:housenumber" v="179"/></node><node lat="45.413204" lon="-75.807823"  id="-100"  changeset="false" ><tag k="amenity" v="kindergarten"/><tag k="name" v="Garderie Les petits Explorateurs"/><tag k="source" v="Ville de Gatineau"/><tag k="addr:street" v="Rue des Attikameks"/><tag k="addr:housenumber" v="80"/></node><node lat="45.437324" lon="-75.803738"  id="-101"  changeset="false" ><tag k="amenity" v="kindergarten"/><tag k="name" v="Garderie éducative Parfaitement Petit"/><tag k="source" v="Ville de Gatineau"/><tag k="addr:street" v="Rue du Prado"/><tag k="addr:housenumber" v="201"/></node><node lat="45.424432" lon="-75.761836"  id="-102"  changeset="false" ><tag k="amenity" v="kindergarten"/><tag k="name" v="Garderie Mira"/><tag k="source" v="Ville de Gatineau"/><tag k="addr:street" v="Boulevard Saint-Raymond"/><tag k="addr:housenumber" v="380"/></node><node lat="45.454152" lon="-75.751604"  id="-103"  changeset="false" ><tag k="amenity" v="kindergarten"/><tag k="name" v="CPE Le Baluchon (Bédard)"/><tag k="source" v="Ville de Gatineau"/><tag k="addr:street" v="Rue Bédard"/><tag k="addr:housenumber" v="100"/></node><node lat="45.459635" lon="-75.74229"  id="-104"  changeset="false" ><tag k="amenity" v="kindergarten"/><tag k="name" v="Garderie la crèche et plus"/><tag k="source" v="Ville de Gatineau"/><tag k="addr:street" v="Rue Isabelle"/><tag k="addr:housenumber" v="174"/></node><node lat="45.41007" lon="-75.794656"  id="-105"  changeset="false" ><tag k="amenity" v="kindergarten"/><tag k="name" v="CPE La Maison des Petits Castors"/><tag k="source" v="Ville de Gatineau"/><tag k="addr:street" v="Chemin Rivermead"/><tag k="addr:housenumber" v="30"/></node><node lat="45.419752" lon="-75.839208"  id="-106"  changeset="false" ><tag k="amenity" v="kindergarten"/><tag k="name" v="CPE La Ribambelle d'Aylmer"/><tag k="source" v="Ville de Gatineau"/><tag k="addr:street" v="Rue des Thuyas"/><tag k="addr:housenumber" v="272"/></node><node lat="45.419392" lon="-75.849881"  id="-107"  changeset="false" ><tag k="amenity" v="kindergarten"/><tag k="name" v="Garderie mon petit cosmos"/><tag k="source" v="Ville de Gatineau"/><tag k="addr:street" v="Rue Maurice-Duplessis"/><tag k="addr:housenumber" v="270"/></node><node lat="45.461112" lon="-75.769065"  id="-108"  changeset="false" ><tag k="amenity" v="kindergarten"/><tag k="name" v="CPE Coop Libelle 2"/><tag k="source" v="Ville de Gatineau"/><tag k="addr:street" v="Boulevard de la Cité-des-Jeunes"/><tag k="addr:housenumber" v="365"/></node><node lat="45.396851" lon="-75.810115"  id="-109"  changeset="false" ><tag k="amenity" v="kindergarten"/><tag k="name" v="Garderie éducative Petit écolo"/><tag k="source" v="Ville de Gatineau"/><tag k="addr:street" v="Rue Shortley"/><tag k="addr:housenumber" v="1"/></node><node lat="45.458698" lon="-75.742285"  id="-110"  changeset="false" ><tag k="amenity" v="kindergarten"/><tag k="name" v="Garderie préscolaire Montessori de Gatineau"/><tag k="source" v="Ville de Gatineau"/><tag k="addr:street" v="Boulevard Saint-Joseph"/><tag k="addr:housenumber" v="755"/></node><node lat="45.460813" lon="-75.768661"  id="-111"  changeset="false" ><tag k="amenity" v="kindergarten"/><tag k="name" v="CPE Coop Libelle"/><tag k="source" v="Ville de Gatineau"/><tag k="addr:street" v="Boulevard de la Cité-des-Jeunes"/><tag k="addr:housenumber" v="355"/></node><node lat="45.423156" lon="-75.804133"  id="-112"  changeset="false" ><tag k="amenity" v="kindergarten"/><tag k="name" v="Garderie Le Paradis des amis"/><tag k="source" v="Ville de Gatineau"/><tag k="addr:street" v="Rue de la Boussole"/><tag k="addr:housenumber" v="77"/></node><node lat="45.394385" lon="-75.850033"  id="-113"  changeset="false" ><tag k="amenity" v="kindergarten"/><tag k="name" v="Service de garde l'héritage du vieux-Aylmer"/><tag k="source" v="Ville de Gatineau"/><tag k="addr:street" v="Rue Principale"/><tag k="addr:housenumber" v="46"/></node><node lat="45.401859" lon="-75.799314"  id="-114"  changeset="false" ><tag k="amenity" v="kindergarten"/><tag k="name" v="Garderie Montessori du Connaught"/><tag k="source" v="Ville de Gatineau"/><tag k="addr:street" v="Avenue de l'Hippodrome"/><tag k="addr:housenumber" v="365"/></node><node lat="45.443601" lon="-75.74237"  id="-115"  changeset="false" ><tag k="amenity" v="kindergarten"/><tag k="name" v="Garderie La Maisonnette Bleue"/><tag k="source" v="Ville de Gatineau"/><tag k="addr:street" v="Rue Gamelin"/><tag k="addr:housenumber" v="198"/></node><node lat="45.402688" lon="-75.801156"  id="-116"  changeset="false" ><tag k="amenity" v="kindergarten"/><tag k="name" v="Garderie Pouponnière Rêve d'enfance"/><tag k="source" v="Ville de Gatineau"/><tag k="addr:street" v="Chemin d'Aylmer"/><tag k="addr:housenumber" v="745"/></node><node lat="45.419501" lon="-75.80993"  id="-117"  changeset="false" ><tag k="amenity" v="kindergarten"/><tag k="name" v="Garderie éducative les poussins fantastiques"/><tag k="source" v="Ville de Gatineau"/><tag k="addr:street" v="Chemin Vanier"/><tag k="addr:housenumber" v="540"/></node><node lat="45.409974" lon="-75.853413"  id="-118"  changeset="false" ><tag k="amenity" v="kindergarten"/><tag k="name" v="Garderie Petits Créatifs 2"/><tag k="source" v="Ville de Gatineau"/><tag k="addr:street" v="Rue du Vison"/><tag k="addr:housenumber" v="28"/></node><node lat="45.394347" lon="-75.850495"  id="-119"  changeset="false" ><tag k="amenity" v="kindergarten"/><tag k="name" v="Garderie de la Marina"/><tag k="source" v="Ville de Gatineau"/><tag k="addr:street" v="Rue Principale"/><tag k="addr:housenumber" v="44"/></node><node lat="45.404111" lon="-75.855465"  id="-120"  changeset="false" ><tag k="amenity" v="kindergarten"/><tag k="name" v="Garderie Ponpon"/><tag k="source" v="Ville de Gatineau"/><tag k="addr:street" v="Rue Front"/><tag k="addr:housenumber" v="117"/></node><node lat="45.396213" lon="-75.838966"  id="-121"  changeset="false" ><tag k="amenity" v="kindergarten"/><tag k="name" v="Garderie École Montessori de l'Outaouais"/><tag k="source" v="Ville de Gatineau"/><tag k="addr:street" v="Rue Principale"/><tag k="addr:housenumber" v="161"/></node><node lat="45.400735" lon="-75.852689"  id="-122"  changeset="false" ><tag k="amenity" v="kindergarten"/><tag k="name" v="Garderie La pré-maternelle du village"/><tag k="source" v="Ville de Gatineau"/><tag k="addr:street" v="Chemin Eardley"/><tag k="addr:housenumber" v="70"/></node><node lat="45.403282" lon="-75.855194"  id="-123"  changeset="false" ><tag k="amenity" v="kindergarten"/><tag k="name" v="CPE Aux Petits Lurons (Front)"/><tag k="source" v="Ville de Gatineau"/><tag k="addr:street" v="Rue Front"/><tag k="addr:housenumber" v="115"/></node><node lat="45.409966" lon="-75.853257"  id="-124"  changeset="false" ><tag k="amenity" v="kindergarten"/><tag k="name" v="Garderie Petits Créatifs"/><tag k="source" v="Ville de Gatineau"/><tag k="addr:street" v="Rue du Vison"/><tag k="addr:housenumber" v="30"/></node><node lat="45.402826" lon="-75.856122"  id="-125"  changeset="false" ><tag k="amenity" v="kindergarten"/><tag k="name" v="CPE Aux Petits Lurons (Eardley)"/><tag k="source" v="Ville de Gatineau"/><tag k="addr:street" v="Chemin Eardley"/><tag k="addr:housenumber" v="104"/></node></osm>